{"type":"FeatureCollection","name":"Região de Coimbra (19 municípios)","source":"CAOP, Direção-Geral do Território, via json.geoapi.pt; simplified to ~40 m","features":[{"type":"Feature","properties":{"municipio":"Arganil","ine":"0601"},"geometry":{"type":"MultiPolygon","coordinates":[[[[-8.20736,40.25589],[-8.20685,40.25438],[-8.20571,40.25397],[-8.20064,40.25458],[-8.19952,40.25275],[-8.19518,40.24994],[-8.19382,40.24543],[-8.19267,40.24561],[-8.19199,40.24671],[-8.19291,40.24885],[-8.19245,40.2498],[-8.1902,40.25061],[-8.18761,40.24972],[-8.18732,40.24795],[-8.18893,40.2458],[-8.18749,40.24414],[-8.18616,40.24371],[-8.18407,40.24447],[-8.18163,40.24842],[-8.18131,40.25075],[-8.1797,40.25154],[-8.17555,40.25139],[-8.17742,40.24926],[-8.17684,40.24701],[-8.17855,40.24589],[-8.17698,40.24507],[-8.17416,40.24532],[-8.16953,40.24849],[-8.16363,40.24928],[-8.17086,40.24271],[-8.17502,40.2379],[-8.17681,40.23683],[-8.18187,40.23626],[-8.1822,40.23431],[-8.18715,40.23108],[-8.1867,40.22943],[-8.18445,40.22725],[-8.18276,40.22665],[-8.18206,40.22489],[-8.17587,40.22265],[-8.17779,40.21989],[-8.17663,40.21805],[-8.17779,40.21571],[-8.1762,40.21304],[-8.17646,40.21154],[-8.17533,40.21101],[-8.17281,40.20471],[-8.1703,40.20896],[-8.1675,40.21176],[-8.16519,40.21286],[-8.14694,40.21042],[-8.14394,40.21106],[-8.14028,40.20907],[-8.13508,40.20828],[-8.13447,40.20477],[-8.13312,40.2035],[-8.12994,40.2025],[-8.12404,40.20278],[-8.12206,40.2017],[-8.12221,40.19772],[-8.12078,40.19492],[-8.1167,40.1967],[-8.10605,40.19786],[-8.09712,40.20093],[-8.09593,40.19744],[-8.09202,40.19473],[-8.09182,40.18966],[-8.08203,40.18735],[-8.08196,40.18224],[-8.08064,40.17988],[-8.07556,40.17783],[-8.07447,40.17225],[-8.06733,40.17016],[-8.06283,40.1672],[-8.05544,40.17162],[-8.04872,40.17091],[-8.04811,40.16955],[-8.04638,40.16841],[-8.04138,40.16939],[-8.03839,40.17173],[-8.03239,40.17378],[-8.02689,40.17205],[-8.02034,40.1738],[-8.01779,40.17366],[-8.01351,40.17191],[-8.00416,40.17387],[-8.00121,40.18118],[-8.00113,40.18595],[-7.99775,40.18839],[-7.99606,40.18878],[-7.98486,40.17783],[-7.98386,40.17255],[-7.98282,40.17155],[-7.98347,40.17094],[-7.98351,40.16782],[-7.98523,40.16718],[-7.98829,40.15974],[-7.99069,40.15644],[-7.98863,40.15462],[-7.98946,40.15388],[-7.9889,40.15333],[-7.98956,40.15223],[-7.98919,40.15094],[-7.99035,40.15041],[-7.98897,40.1486],[-7.99099,40.14686],[-7.99202,40.14199],[-7.99492,40.13943],[-7.99554,40.1374],[-7.99487,40.13678],[-7.99272,40.13755],[-7.99164,40.14039],[-7.9881,40.13931],[-7.98573,40.1378],[-7.98447,40.13981],[-7.98143,40.13631],[-7.97923,40.13732],[-7.9793,40.13877],[-7.97734,40.1401],[-7.97252,40.13784],[-7.9713,40.13799],[-7.96992,40.1395],[-7.96966,40.14121],[-7.96553,40.14223],[-7.96397,40.14347],[-7.96453,40.14482],[-7.96713,40.14349],[-7.96794,40.1439],[-7.96222,40.14857],[-7.96274,40.15049],[-7.96444,40.15118],[-7.96418,40.15185],[-7.961,40.15271],[-7.96095,40.15102],[-7.95908,40.15325],[-7.9563,40.1517],[-7.95446,40.15343],[-7.9526,40.15329],[-7.94987,40.15402],[-7.94736,40.15332],[-7.94728,40.15393],[-7.94861,40.15418],[-7.94986,40.15549],[-7.9484,40.15758],[-7.95076,40.15787],[-7.951,40.15895],[-7.9479,40.16237],[-7.94695,40.16209],[-7.94756,40.16051],[-7.94506,40.16167],[-7.94314,40.16041],[-7.94314,40.16316],[-7.94119,40.16425],[-7.93948,40.16667],[-7.93788,40.16724],[-7.93644,40.17018],[-7.93223,40.16984],[-7.93098,40.1703],[-7.92917,40.16864],[-7.92674,40.17028],[-7.92384,40.16858],[-7.91847,40.17343],[-7.9177,40.17295],[-7.91314,40.17426],[-7.91218,40.17542],[-7.91109,40.1752],[-7.91044,40.17613],[-7.91105,40.1791],[-7.91064,40.1807],[-7.90401,40.18383],[-7.90206,40.18913],[-7.90205,40.19021],[-7.90333,40.19104],[-7.89942,40.19576],[-7.89976,40.19715],[-7.89824,40.19745],[-7.89624,40.20156],[-7.89259,40.20287],[-7.89166,40.20633],[-7.88864,40.20801],[-7.88814,40.20893],[-7.88485,40.20958],[-7.88388,40.21062],[-7.87646,40.21037],[-7.87579,40.20975],[-7.87546,40.20775],[-7.87314,40.2036],[-7.87546,40.19649],[-7.87457,40.19397],[-7.87198,40.19223],[-7.8678,40.1901],[-7.8655,40.18977],[-7.85432,40.19396],[-7.85007,40.19438],[-7.84516,40.18959],[-7.84309,40.18848],[-7.8429,40.18731],[-7.84065,40.18837],[-7.83962,40.18628],[-7.83783,40.18955],[-7.83742,40.19649],[-7.82918,40.20287],[-7.82747,40.2034],[-7.81894,40.19869],[-7.81755,40.19608],[-7.81391,40.19543],[-7.81087,40.19082],[-7.80808,40.18464],[-7.80904,40.18178],[-7.80773,40.18298],[-7.807,40.18513],[-7.80203,40.19044],[-7.79973,40.19575],[-7.79572,40.2016],[-7.78434,40.20819],[-7.78398,40.2203],[-7.78241,40.22925],[-7.78285,40.23167],[-7.78871,40.24074],[-7.79959,40.25088],[-7.80377,40.25632],[-7.80699,40.2568],[-7.81162,40.25567],[-7.82163,40.25668],[-7.82435,40.25924],[-7.82585,40.26473],[-7.82553,40.2663],[-7.83634,40.26125],[-7.84372,40.25956],[-7.84699,40.26107],[-7.84925,40.26305],[-7.85166,40.26699],[-7.85576,40.27104],[-7.86256,40.27248],[-7.86598,40.27503],[-7.87558,40.27787],[-7.87641,40.27964],[-7.87956,40.28001],[-7.8835,40.28143],[-7.88315,40.28546],[-7.88844,40.28346],[-7.90244,40.28126],[-7.90285,40.28233],[-7.91193,40.28661],[-7.92066,40.28572],[-7.92052,40.2878],[-7.92133,40.28894],[-7.92227,40.29404],[-7.92528,40.29325],[-7.92764,40.29082],[-7.93761,40.28953],[-7.93957,40.28682],[-7.94133,40.28643],[-7.94503,40.28351],[-7.94653,40.2834],[-7.94901,40.2846],[-7.94979,40.28585],[-7.94556,40.29091],[-7.94393,40.29158],[-7.94298,40.29282],[-7.94493,40.29482],[-7.94853,40.29642],[-7.94597,40.30061],[-7.94793,40.30178],[-7.95209,40.30056],[-7.95693,40.29653],[-7.95854,40.29737],[-7.96166,40.29695],[-7.96343,40.29787],[-7.96532,40.30184],[-7.96732,40.30413],[-7.96765,40.30308],[-7.97018,40.3014],[-7.96974,40.29922],[-7.97217,40.29879],[-7.97177,40.29795],[-7.97647,40.29464],[-7.97554,40.29404],[-7.97656,40.29278],[-7.97643,40.29176],[-7.97789,40.29097],[-7.9777,40.28945],[-7.98467,40.28455],[-7.99033,40.28676],[-7.99587,40.28811],[-7.9995,40.28574],[-8.00201,40.28278],[-7.99936,40.27976],[-7.99931,40.27803],[-7.99789,40.27753],[-7.99702,40.27616],[-7.99736,40.27436],[-7.99969,40.27317],[-8.00048,40.26973],[-8.00356,40.26817],[-8.00417,40.26545],[-8.0078,40.2638],[-8.00895,40.26061],[-8.01087,40.26017],[-8.01497,40.26133],[-8.01538,40.2623],[-8.01473,40.26376],[-8.01567,40.26676],[-8.01769,40.26391],[-8.01784,40.25862],[-8.01883,40.25696],[-8.02493,40.25532],[-8.02869,40.25497],[-8.02883,40.25574],[-8.02662,40.25714],[-8.02637,40.25974],[-8.02769,40.26056],[-8.03348,40.25782],[-8.03446,40.25228],[-8.0362,40.24982],[-8.03826,40.24448],[-8.0399,40.24219],[-8.04245,40.24091],[-8.0445,40.24101],[-8.04797,40.24396],[-8.05158,40.24273],[-8.05539,40.24963],[-8.06083,40.25199],[-8.06293,40.2549],[-8.0662,40.26343],[-8.07172,40.27145],[-8.07618,40.27591],[-8.08521,40.26945],[-8.0862,40.26796],[-8.08584,40.26531],[-8.08863,40.26315],[-8.08834,40.26184],[-8.08947,40.26135],[-8.0937,40.26007],[-8.09532,40.26364],[-8.09741,40.26591],[-8.10198,40.26715],[-8.10483,40.26604],[-8.10802,40.27018],[-8.10505,40.27948],[-8.11249,40.28441],[-8.11127,40.28877],[-8.11153,40.29294],[-8.10894,40.29541],[-8.10857,40.29657],[-8.11043,40.30055],[-8.11341,40.30154],[-8.11541,40.30138],[-8.11649,40.29983],[-8.1194,40.29986],[-8.12159,40.2984],[-8.12417,40.29803],[-8.12765,40.29854],[-8.13138,40.29759],[-8.13219,40.29662],[-8.13531,40.29561],[-8.13978,40.29065],[-8.14045,40.2882],[-8.14176,40.28767],[-8.14487,40.28906],[-8.14974,40.28943],[-8.15472,40.28822],[-8.15987,40.28616],[-8.16142,40.28387],[-8.16002,40.28134],[-8.16041,40.27835],[-8.16327,40.27437],[-8.16168,40.27056],[-8.16443,40.26865],[-8.16544,40.26867],[-8.16591,40.26682],[-8.16794,40.26449],[-8.17481,40.26155],[-8.17529,40.25951],[-8.17642,40.2583],[-8.18144,40.2597],[-8.18377,40.25964],[-8.18533,40.25896],[-8.19193,40.25874],[-8.19324,40.25849],[-8.19315,40.2567],[-8.19414,40.25615],[-8.19463,40.25835],[-8.19736,40.25877],[-8.19913,40.26033],[-8.20261,40.25845],[-8.2069,40.25715],[-8.20736,40.25589]]]]}},{"type":"Feature","properties":{"municipio":"Cantanhede","ine":"0602"},"geometry":{"type":"MultiPolygon","coordinates":[[[[-8.84633,40.32688],[-8.84252,40.32595],[-8.81793,40.3129],[-8.81366,40.31122],[-8.78648,40.29632],[-8.78635,40.29544],[-8.78338,40.2967],[-8.77447,40.29667],[-8.77191,40.29485],[-8.75689,40.29114],[-8.74152,40.29205],[-8.74196,40.29352],[-8.74076,40.29452],[-8.74125,40.29661],[-8.74352,40.29933],[-8.74701,40.30663],[-8.74524,40.31104],[-8.7295,40.30823],[-8.727,40.30641],[-8.72191,40.30527],[-8.71306,40.30535],[-8.6935,40.30403],[-8.68732,40.30175],[-8.68375,40.30177],[-8.67816,40.29997],[-8.66805,40.29923],[-8.65447,40.29953],[-8.65295,40.29848],[-8.65086,40.29803],[-8.65036,40.29991],[-8.64495,40.30182],[-8.64151,40.30117],[-8.63803,40.30129],[-8.63622,40.30034],[-8.63377,40.30356],[-8.63107,40.30018],[-8.62969,40.29691],[-8.62876,40.29643],[-8.63157,40.29295],[-8.61548,40.28312],[-8.61324,40.28055],[-8.61606,40.27757],[-8.61839,40.27658],[-8.61481,40.27416],[-8.6089,40.27324],[-8.60859,40.27228],[-8.59929,40.27592],[-8.59752,40.2776],[-8.59644,40.28009],[-8.59479,40.2814],[-8.58826,40.28251],[-8.5828,40.28621],[-8.5738,40.28917],[-8.57289,40.29084],[-8.57072,40.29194],[-8.56614,40.29227],[-8.56517,40.29126],[-8.5616,40.29012],[-8.56265,40.28872],[-8.56442,40.28832],[-8.56532,40.28727],[-8.5618,40.27621],[-8.56187,40.27495],[-8.56293,40.27374],[-8.56044,40.27222],[-8.56032,40.26698],[-8.55349,40.25916],[-8.55284,40.25769],[-8.55346,40.25343],[-8.5513,40.25181],[-8.54638,40.25156],[-8.54502,40.24912],[-8.54126,40.2453],[-8.53096,40.25141],[-8.5207,40.25572],[-8.51673,40.25538],[-8.51272,40.2528],[-8.50466,40.24998],[-8.50121,40.24684],[-8.50082,40.24906],[-8.50159,40.2541],[-8.49963,40.25806],[-8.50112,40.26034],[-8.50056,40.2628],[-8.49827,40.26618],[-8.49487,40.2684],[-8.49457,40.27119],[-8.49774,40.27246],[-8.50055,40.27237],[-8.50219,40.27705],[-8.50525,40.27988],[-8.50643,40.28264],[-8.50816,40.28366],[-8.50884,40.28486],[-8.50789,40.28597],[-8.50765,40.2894],[-8.50945,40.28933],[-8.51194,40.29092],[-8.52085,40.29186],[-8.52336,40.29049],[-8.52482,40.29135],[-8.52586,40.29402],[-8.52551,40.29951],[-8.52738,40.3029],[-8.52747,40.30639],[-8.52985,40.31565],[-8.52721,40.31503],[-8.52451,40.31524],[-8.51947,40.31413],[-8.51596,40.31252],[-8.51189,40.31224],[-8.49909,40.31392],[-8.49492,40.31542],[-8.48638,40.31495],[-8.48499,40.31534],[-8.48591,40.33203],[-8.48695,40.33442],[-8.49075,40.33892],[-8.49186,40.3456],[-8.48945,40.34886],[-8.48737,40.35545],[-8.48326,40.36277],[-8.48333,40.3658],[-8.48549,40.36654],[-8.48761,40.36848],[-8.484,40.3711],[-8.48317,40.37412],[-8.48099,40.37581],[-8.48416,40.37832],[-8.4842,40.37917],[-8.4837,40.38156],[-8.48126,40.38566],[-8.48331,40.38911],[-8.4934,40.39604],[-8.49687,40.39603],[-8.49709,40.39763],[-8.49882,40.40021],[-8.5002,40.40038],[-8.50279,40.39915],[-8.50476,40.40006],[-8.50505,40.40395],[-8.50813,40.40748],[-8.50503,40.41721],[-8.50481,40.42224],[-8.50701,40.42105],[-8.51768,40.42049],[-8.52279,40.41643],[-8.52896,40.41407],[-8.5302,40.41275],[-8.53291,40.41408],[-8.53474,40.4116],[-8.54177,40.40649],[-8.54544,40.40554],[-8.55325,40.40486],[-8.57244,40.40029],[-8.57584,40.40416],[-8.57937,40.41238],[-8.57981,40.42083],[-8.57821,40.44277],[-8.57246,40.44843],[-8.57107,40.45059],[-8.57193,40.45503],[-8.57162,40.4571],[-8.57289,40.45883],[-8.57478,40.46485],[-8.57626,40.46575],[-8.57685,40.46865],[-8.57782,40.46985],[-8.58131,40.47201],[-8.58094,40.47322],[-8.58214,40.47769],[-8.58391,40.47899],[-8.58615,40.47971],[-8.59005,40.47979],[-8.59191,40.48129],[-8.59433,40.48021],[-8.59788,40.48022],[-8.59932,40.47927],[-8.60078,40.4808],[-8.6029,40.47999],[-8.60541,40.48087],[-8.60661,40.48067],[-8.60752,40.48149],[-8.60764,40.48366],[-8.61483,40.48558],[-8.62064,40.48212],[-8.62471,40.47573],[-8.62493,40.4729],[-8.62866,40.46988],[-8.63024,40.46685],[-8.63157,40.46582],[-8.63209,40.4623],[-8.6305,40.4598],[-8.63163,40.45765],[-8.63329,40.45626],[-8.63257,40.45448],[-8.63354,40.45308],[-8.63274,40.45208],[-8.63325,40.44597],[-8.63116,40.4344],[-8.63223,40.43134],[-8.63569,40.42564],[-8.63766,40.42504],[-8.64101,40.42549],[-8.64866,40.42425],[-8.66299,40.4286],[-8.67777,40.43491],[-8.68362,40.438],[-8.68672,40.44034],[-8.68724,40.4401],[-8.68334,40.43633],[-8.68515,40.43189],[-8.68416,40.4287],[-8.68349,40.42881],[-8.68226,40.42744],[-8.68197,40.42419],[-8.68394,40.42375],[-8.68696,40.42482],[-8.69224,40.42477],[-8.69236,40.42008],[-8.69108,40.41849],[-8.68992,40.41441],[-8.68798,40.41362],[-8.68741,40.40708],[-8.6899,40.4048],[-8.68958,40.40417],[-8.69416,40.40104],[-8.69646,40.40023],[-8.69654,40.39869],[-8.69741,40.39853],[-8.69807,40.39697],[-8.69876,40.3969],[-8.69937,40.39471],[-8.69862,40.39231],[-8.70217,40.38781],[-8.70147,40.38505],[-8.70169,40.38178],[-8.70371,40.37941],[-8.70273,40.37772],[-8.70577,40.37237],[-8.70728,40.37206],[-8.70765,40.37134],[-8.71221,40.37174],[-8.71346,40.371],[-8.71998,40.37207],[-8.72635,40.37196],[-8.73198,40.37448],[-8.73503,40.37685],[-8.73734,40.37705],[-8.74802,40.37736],[-8.75872,40.37638],[-8.76899,40.37668],[-8.77634,40.37891],[-8.82568,40.38894],[-8.82872,40.37769],[-8.83432,40.36162],[-8.8361,40.35827],[-8.836,40.35662],[-8.83743,40.35397],[-8.84196,40.33869],[-8.8435,40.33594],[-8.84312,40.33499],[-8.84633,40.32688]]]]}},{"type":"Feature","properties":{"municipio":"Coimbra","ine":"0603"},"geometry":{"type":"MultiPolygon","coordinates":[[[[-8.59168,40.26358],[-8.5887,40.26232],[-8.58511,40.25704],[-8.58545,40.25325],[-8.58268,40.25047],[-8.58352,40.24917],[-8.58272,40.24754],[-8.57586,40.24168],[-8.57558,40.23879],[-8.57764,40.23298],[-8.57684,40.22721],[-8.57472,40.22277],[-8.56951,40.21786],[-8.56921,40.21558],[-8.55162,40.21484],[-8.54751,40.19965],[-8.55954,40.19715],[-8.56089,40.19492],[-8.56139,40.19066],[-8.56224,40.18964],[-8.56178,40.18574],[-8.56328,40.1829],[-8.56269,40.181],[-8.56409,40.18021],[-8.56286,40.17823],[-8.56299,40.17716],[-8.56204,40.17657],[-8.55789,40.1698],[-8.55587,40.16806],[-8.55602,40.16442],[-8.55348,40.15901],[-8.55277,40.1558],[-8.55134,40.15378],[-8.54909,40.15246],[-8.54952,40.15508],[-8.54704,40.15639],[-8.54777,40.15701],[-8.54833,40.1597],[-8.54816,40.16325],[-8.54944,40.16574],[-8.54866,40.16881],[-8.54758,40.17001],[-8.54639,40.17647],[-8.54541,40.17855],[-8.54487,40.17852],[-8.53541,40.17351],[-8.5317,40.16952],[-8.52931,40.17089],[-8.52353,40.16886],[-8.5195,40.16518],[-8.51226,40.16354],[-8.50934,40.16231],[-8.50865,40.16063],[-8.50674,40.15989],[-8.49977,40.16063],[-8.49211,40.16607],[-8.48761,40.16463],[-8.48537,40.16322],[-8.48556,40.15126],[-8.49072,40.14922],[-8.49246,40.1474],[-8.49261,40.14445],[-8.49386,40.1411],[-8.49415,40.13296],[-8.49724,40.12452],[-8.48314,40.12463],[-8.48147,40.11936],[-8.46446,40.11318],[-8.4599,40.11757],[-8.45236,40.11602],[-8.44706,40.11736],[-8.44619,40.11806],[-8.44564,40.12039],[-8.43276,40.12044],[-8.43134,40.12624],[-8.42592,40.12682],[-8.42401,40.12914],[-8.42121,40.12865],[-8.41874,40.126],[-8.41438,40.12292],[-8.41254,40.12279],[-8.41008,40.12106],[-8.40783,40.1217],[-8.40684,40.1206],[-8.4093,40.11909],[-8.40981,40.11742],[-8.40937,40.11609],[-8.40486,40.1131],[-8.40486,40.11218],[-8.40589,40.11155],[-8.40474,40.10863],[-8.40678,40.10664],[-8.40606,40.10375],[-8.40274,40.10097],[-8.40363,40.09892],[-8.39329,40.10269],[-8.38121,40.10872],[-8.37906,40.11107],[-8.37815,40.11367],[-8.36967,40.11501],[-8.36587,40.1149],[-8.36392,40.11601],[-8.36048,40.12224],[-8.36335,40.1239],[-8.36414,40.1251],[-8.36106,40.12434],[-8.35942,40.12459],[-8.3596,40.12821],[-8.35813,40.13067],[-8.36069,40.13803],[-8.36244,40.13846],[-8.36374,40.13969],[-8.36561,40.13788],[-8.36674,40.13874],[-8.36925,40.13891],[-8.36952,40.14059],[-8.36614,40.14014],[-8.36511,40.14069],[-8.36931,40.14183],[-8.37065,40.14323],[-8.37307,40.14363],[-8.37144,40.14458],[-8.37285,40.14809],[-8.37522,40.14822],[-8.3774,40.14706],[-8.37896,40.14773],[-8.37558,40.15027],[-8.37516,40.15173],[-8.37425,40.15187],[-8.37406,40.15551],[-8.37516,40.15585],[-8.37587,40.15502],[-8.37831,40.15417],[-8.3792,40.15421],[-8.3796,40.15498],[-8.37749,40.1572],[-8.37428,40.15659],[-8.36896,40.15767],[-8.36857,40.15954],[-8.36379,40.16219],[-8.36104,40.16126],[-8.3567,40.15833],[-8.35552,40.15881],[-8.35446,40.15822],[-8.35277,40.15594],[-8.35147,40.15242],[-8.35148,40.15352],[-8.34968,40.15568],[-8.34796,40.15615],[-8.34956,40.15853],[-8.35322,40.16133],[-8.35966,40.16271],[-8.36205,40.16388],[-8.36212,40.16585],[-8.36504,40.16848],[-8.36525,40.17027],[-8.36801,40.17476],[-8.36718,40.18111],[-8.36361,40.18314],[-8.36085,40.18233],[-8.35699,40.18331],[-8.35548,40.18201],[-8.35289,40.18135],[-8.35003,40.18279],[-8.3467,40.18311],[-8.34611,40.18393],[-8.34635,40.18715],[-8.34517,40.18921],[-8.34647,40.19131],[-8.34676,40.19358],[-8.34446,40.19438],[-8.34001,40.19332],[-8.33452,40.19374],[-8.32962,40.1925],[-8.3129,40.19085],[-8.31992,40.19847],[-8.31943,40.20446],[-8.31495,40.20482],[-8.31512,40.20848],[-8.32155,40.20776],[-8.32658,40.21177],[-8.331,40.21361],[-8.33613,40.21466],[-8.33853,40.2165],[-8.33899,40.21778],[-8.33992,40.21793],[-8.34141,40.22029],[-8.34659,40.22314],[-8.35138,40.22811],[-8.35475,40.23346],[-8.35783,40.23418],[-8.35744,40.23608],[-8.36037,40.23815],[-8.36249,40.24197],[-8.36251,40.24435],[-8.36357,40.24542],[-8.36439,40.2488],[-8.36132,40.25169],[-8.35933,40.25512],[-8.35991,40.26319],[-8.35643,40.26524],[-8.35362,40.26848],[-8.36024,40.27118],[-8.3674,40.27666],[-8.37264,40.2797],[-8.37673,40.28065],[-8.3813,40.28031],[-8.38701,40.28158],[-8.38948,40.28564],[-8.38855,40.28783],[-8.38965,40.29058],[-8.38896,40.29315],[-8.38598,40.29691],[-8.38351,40.29834],[-8.38547,40.29877],[-8.38784,40.30848],[-8.3896,40.31249],[-8.38737,40.31289],[-8.38543,40.31521],[-8.38289,40.31584],[-8.38253,40.31757],[-8.37927,40.3174],[-8.37877,40.3164],[-8.37537,40.3166],[-8.374,40.31817],[-8.37389,40.31953],[-8.37202,40.31922],[-8.37112,40.3199],[-8.37056,40.32234],[-8.36785,40.32613],[-8.36904,40.32884],[-8.37585,40.33637],[-8.37533,40.3413],[-8.3813,40.34374],[-8.38282,40.34535],[-8.38557,40.34529],[-8.38694,40.34454],[-8.39281,40.34838],[-8.3942,40.34765],[-8.40396,40.34982],[-8.40516,40.35201],[-8.40558,40.34856],[-8.40484,40.34558],[-8.40134,40.34188],[-8.40911,40.33091],[-8.40959,40.32386],[-8.42005,40.32369],[-8.42443,40.32215],[-8.42935,40.32375],[-8.44907,40.31711],[-8.44943,40.31553],[-8.44844,40.31135],[-8.44938,40.30904],[-8.44635,40.29853],[-8.44734,40.28974],[-8.45089,40.28559],[-8.45204,40.2822],[-8.45374,40.28138],[-8.45436,40.27917],[-8.45948,40.27882],[-8.4657,40.28103],[-8.46762,40.28301],[-8.46691,40.28471],[-8.4677,40.28546],[-8.46745,40.288],[-8.46846,40.28881],[-8.47758,40.28841],[-8.48816,40.29218],[-8.4946,40.2901],[-8.49494,40.29058],[-8.49953,40.28975],[-8.50764,40.28942],[-8.50789,40.28597],[-8.50884,40.28486],[-8.50816,40.28366],[-8.50643,40.28264],[-8.50525,40.27988],[-8.50219,40.27705],[-8.50055,40.27237],[-8.49774,40.27246],[-8.49457,40.27119],[-8.49487,40.2684],[-8.49827,40.26618],[-8.50056,40.2628],[-8.50112,40.26034],[-8.49963,40.25806],[-8.50159,40.2541],[-8.50084,40.24932],[-8.50119,40.24684],[-8.50466,40.24998],[-8.51272,40.2528],[-8.51673,40.25538],[-8.5207,40.25572],[-8.53096,40.25141],[-8.54126,40.2453],[-8.54502,40.24912],[-8.54638,40.25156],[-8.5513,40.25181],[-8.55346,40.25343],[-8.55284,40.25769],[-8.55349,40.25916],[-8.56032,40.26698],[-8.56044,40.27222],[-8.56293,40.27374],[-8.56187,40.27495],[-8.5618,40.27621],[-8.56532,40.28727],[-8.56442,40.28832],[-8.56265,40.28872],[-8.5616,40.29012],[-8.56517,40.29126],[-8.56614,40.29227],[-8.56973,40.29217],[-8.57164,40.29154],[-8.57307,40.29065],[-8.5738,40.28917],[-8.5828,40.28621],[-8.58843,40.28244],[-8.58839,40.27632],[-8.58724,40.27451],[-8.58786,40.27321],[-8.58699,40.27116],[-8.59168,40.26358]]]]}},{"type":"Feature","properties":{"municipio":"Condeixa-a-Nova","ine":"0604"},"geometry":{"type":"MultiPolygon","coordinates":[[[[-8.59145,40.11017],[-8.58704,40.09314],[-8.58199,40.08821],[-8.57573,40.08445],[-8.56143,40.08507],[-8.55831,40.08405],[-8.55331,40.07489],[-8.54914,40.06963],[-8.53993,40.05188],[-8.5373,40.04832],[-8.53197,40.04824],[-8.5167,40.04953],[-8.50907,40.04782],[-8.50296,40.04839],[-8.49643,40.04697],[-8.49177,40.03362],[-8.48142,40.02979],[-8.47834,40.03081],[-8.47659,40.03242],[-8.47569,40.03236],[-8.47477,40.03363],[-8.4732,40.0369],[-8.47326,40.04385],[-8.46987,40.04323],[-8.4641,40.04053],[-8.45909,40.03916],[-8.43838,40.03863],[-8.43782,40.03657],[-8.4312,40.03865],[-8.42787,40.04078],[-8.42944,40.04649],[-8.42697,40.04686],[-8.42734,40.04877],[-8.42654,40.04901],[-8.4264,40.0501],[-8.42926,40.05515],[-8.43256,40.05539],[-8.43373,40.05741],[-8.4361,40.05755],[-8.43754,40.06055],[-8.4425,40.06298],[-8.44189,40.06428],[-8.4462,40.06571],[-8.4485,40.06769],[-8.45258,40.06917],[-8.4527,40.07052],[-8.4503,40.07357],[-8.45208,40.07484],[-8.45242,40.07611],[-8.45397,40.0763],[-8.45613,40.07779],[-8.4544,40.08141],[-8.457,40.08501],[-8.4544,40.08519],[-8.45216,40.08431],[-8.45107,40.08307],[-8.44132,40.08044],[-8.44003,40.07898],[-8.43801,40.07919],[-8.43585,40.07712],[-8.43373,40.07197],[-8.42386,40.07792],[-8.42235,40.07704],[-8.4205,40.07695],[-8.41752,40.08053],[-8.41431,40.08054],[-8.41138,40.07984],[-8.40893,40.08083],[-8.40562,40.07793],[-8.40196,40.08237],[-8.3982,40.08476],[-8.40093,40.0919],[-8.40089,40.09348],[-8.40367,40.09898],[-8.40274,40.10097],[-8.40621,40.10406],[-8.40678,40.10678],[-8.40474,40.10863],[-8.40589,40.11155],[-8.40482,40.11224],[-8.40492,40.11325],[-8.40937,40.11609],[-8.40981,40.11742],[-8.4093,40.11909],[-8.40677,40.12032],[-8.40783,40.1217],[-8.40996,40.12105],[-8.41105,40.12138],[-8.41249,40.12276],[-8.41438,40.12292],[-8.41874,40.126],[-8.42083,40.12852],[-8.42401,40.12914],[-8.42592,40.12682],[-8.43134,40.12624],[-8.43276,40.12044],[-8.44564,40.12039],[-8.44619,40.11806],[-8.44706,40.11736],[-8.45236,40.11602],[-8.4599,40.11757],[-8.46423,40.11313],[-8.48147,40.11936],[-8.48314,40.12463],[-8.49724,40.12452],[-8.49415,40.13296],[-8.49386,40.1411],[-8.49261,40.14445],[-8.49246,40.1474],[-8.49072,40.14922],[-8.48556,40.15126],[-8.48537,40.16322],[-8.48761,40.16463],[-8.49211,40.16607],[-8.49977,40.16063],[-8.50674,40.15989],[-8.50865,40.16063],[-8.50934,40.16231],[-8.51226,40.16354],[-8.5195,40.16518],[-8.52353,40.16886],[-8.52931,40.17089],[-8.5317,40.16952],[-8.53541,40.17351],[-8.54487,40.17852],[-8.54541,40.17855],[-8.54639,40.17647],[-8.54758,40.17001],[-8.54866,40.16881],[-8.54944,40.16574],[-8.54816,40.16325],[-8.54833,40.1597],[-8.54777,40.15701],[-8.54704,40.15639],[-8.54952,40.15508],[-8.54909,40.15246],[-8.55127,40.15374],[-8.55042,40.15113],[-8.5511,40.14812],[-8.55435,40.14034],[-8.55865,40.1404],[-8.56033,40.14126],[-8.56361,40.13877],[-8.56697,40.13804],[-8.57458,40.134],[-8.58223,40.13274],[-8.57957,40.13066],[-8.5795,40.12973],[-8.57714,40.12728],[-8.57716,40.12262],[-8.57879,40.11979],[-8.58143,40.11877],[-8.58797,40.12034],[-8.58633,40.11645],[-8.59145,40.11017]]]]}},{"type":"Feature","properties":{"municipio":"Figueira da Foz","ine":"0605"},"geometry":{"type":"MultiPolygon","coordinates":[[[[-8.90924,40.1864],[-8.90791,40.18488],[-8.90804,40.18108],[-8.90653,40.17883],[-8.90486,40.17787],[-8.90236,40.17763],[-8.897,40.17568],[-8.89419,40.17197],[-8.88981,40.17034],[-8.88433,40.16593],[-8.88173,40.16568],[-8.88047,40.16423],[-8.87764,40.16384],[-8.87527,40.162],[-8.87197,40.15459],[-8.87145,40.14708],[-8.87526,40.14559],[-8.87043,40.147],[-8.86759,40.14717],[-8.86751,40.1465],[-8.86825,40.14628],[-8.868,40.14468],[-8.86603,40.14442],[-8.86758,40.14159],[-8.87337,40.14339],[-8.87367,40.14306],[-8.86304,40.14008],[-8.86374,40.12967],[-8.86407,40.12816],[-8.86472,40.12792],[-8.86416,40.12773],[-8.86426,40.12621],[-8.86508,40.12606],[-8.86427,40.12522],[-8.86464,40.12444],[-8.86604,40.12416],[-8.86458,40.12404],[-8.86457,40.12336],[-8.86833,40.11118],[-8.87599,40.09274],[-8.87768,40.09014],[-8.87846,40.09007],[-8.87706,40.08967],[-8.87693,40.08912],[-8.88053,40.08057],[-8.88798,40.06534],[-8.88933,40.06101],[-8.89196,40.05623],[-8.89283,40.05633],[-8.89115,40.0554],[-8.89464,40.04662],[-8.89493,40.0455],[-8.89412,40.04441],[-8.88772,40.04279],[-8.8833,40.04049],[-8.88036,40.04011],[-8.87057,40.0348],[-8.86983,40.03221],[-8.86665,40.02684],[-8.86898,40.02437],[-8.86865,40.02338],[-8.84753,40.02359],[-8.84172,40.02676],[-8.83968,40.02853],[-8.83877,40.02826],[-8.8377,40.02672],[-8.82967,40.02457],[-8.82552,40.02176],[-8.81852,40.02093],[-8.81487,40.01637],[-8.80759,40.01527],[-8.80046,40.01256],[-8.79841,40.01539],[-8.79783,40.02142],[-8.79477,40.02585],[-8.7898,40.02934],[-8.78564,40.03498],[-8.78253,40.03755],[-8.77707,40.03749],[-8.77265,40.03847],[-8.76668,40.04084],[-8.76254,40.04116],[-8.76067,40.04025],[-8.75736,40.03987],[-8.75206,40.0376],[-8.74866,40.03734],[-8.74582,40.0364],[-8.74526,40.03673],[-8.73696,40.03237],[-8.73335,40.03185],[-8.73222,40.03218],[-8.73176,40.03593],[-8.73298,40.03795],[-8.73211,40.04104],[-8.73324,40.04288],[-8.73452,40.04356],[-8.73441,40.04488],[-8.73711,40.04787],[-8.7381,40.05425],[-8.7376,40.05698],[-8.7385,40.05827],[-8.73844,40.06009],[-8.74174,40.06376],[-8.74109,40.06695],[-8.74984,40.07231],[-8.75022,40.07433],[-8.75388,40.07889],[-8.75331,40.07962],[-8.74963,40.0797],[-8.74937,40.08062],[-8.75205,40.08355],[-8.75068,40.08495],[-8.7493,40.08491],[-8.74808,40.08339],[-8.74661,40.08285],[-8.74529,40.08372],[-8.74517,40.08569],[-8.74692,40.08945],[-8.74967,40.09087],[-8.75231,40.0944],[-8.75591,40.09577],[-8.75713,40.0968],[-8.7572,40.10417],[-8.76066,40.10713],[-8.75962,40.1114],[-8.76375,40.11589],[-8.76291,40.11721],[-8.76391,40.1178],[-8.76326,40.11896],[-8.7652,40.11794],[-8.76797,40.11876],[-8.7711,40.11706],[-8.77374,40.11366],[-8.77512,40.11414],[-8.77259,40.11753],[-8.77035,40.12526],[-8.76478,40.1336],[-8.76063,40.1376],[-8.75487,40.14062],[-8.74016,40.14634],[-8.73635,40.1472],[-8.73635,40.1486],[-8.70866,40.16274],[-8.71122,40.16482],[-8.69988,40.1729],[-8.70029,40.17337],[-8.70295,40.17244],[-8.70394,40.17451],[-8.70176,40.17788],[-8.70423,40.18014],[-8.70721,40.18072],[-8.70058,40.18879],[-8.70014,40.19112],[-8.71106,40.19217],[-8.70988,40.19548],[-8.71021,40.19776],[-8.71485,40.20886],[-8.71907,40.21564],[-8.71934,40.22026],[-8.71703,40.22471],[-8.71692,40.22824],[-8.71727,40.22897],[-8.71865,40.22902],[-8.72004,40.23255],[-8.72303,40.23539],[-8.72411,40.23779],[-8.72758,40.23991],[-8.72763,40.2413],[-8.73006,40.24543],[-8.73244,40.24713],[-8.73424,40.25154],[-8.73737,40.25461],[-8.73792,40.25663],[-8.73752,40.26078],[-8.73984,40.26442],[-8.73807,40.26975],[-8.73843,40.27181],[-8.73758,40.27564],[-8.74055,40.27957],[-8.74049,40.28132],[-8.73904,40.28236],[-8.74152,40.29205],[-8.75689,40.29114],[-8.77191,40.29485],[-8.77447,40.29667],[-8.78338,40.2967],[-8.78635,40.29544],[-8.78648,40.29632],[-8.81366,40.31122],[-8.81793,40.3129],[-8.84252,40.32595],[-8.84633,40.32688],[-8.85107,40.31609],[-8.8552,40.30399],[-8.85698,40.30112],[-8.85797,40.2973],[-8.85967,40.29551],[-8.86043,40.29215],[-8.86665,40.2787],[-8.87168,40.26432],[-8.87557,40.25721],[-8.87676,40.25225],[-8.87897,40.24912],[-8.8838,40.23802],[-8.88661,40.2336],[-8.88663,40.23238],[-8.89319,40.22024],[-8.90437,40.19658],[-8.90842,40.18965],[-8.90924,40.1864]]]]}},{"type":"Feature","properties":{"municipio":"Góis","ine":"0606"},"geometry":{"type":"MultiPolygon","coordinates":[[[[-8.18039,40.09826],[-8.17828,40.09247],[-8.1791,40.08974],[-8.16277,40.08312],[-8.16101,40.07876],[-8.15747,40.07771],[-8.1517,40.07381],[-8.14374,40.07278],[-8.14454,40.0686],[-8.14309,40.06765],[-8.14371,40.06601],[-8.14264,40.06532],[-8.1434,40.06432],[-8.14297,40.06333],[-8.14773,40.05755],[-8.14721,40.05588],[-8.14809,40.05555],[-8.14813,40.05348],[-8.14959,40.05241],[-8.14849,40.05081],[-8.14958,40.04903],[-8.15,40.04594],[-8.15117,40.04485],[-8.15265,40.04075],[-8.15345,40.04036],[-8.15229,40.03785],[-8.15318,40.0364],[-8.15211,40.03336],[-8.1539,40.03223],[-8.15685,40.02726],[-8.15565,40.0269],[-8.15604,40.02514],[-8.15506,40.0236],[-8.156,40.02194],[-8.15411,40.02179],[-8.15524,40.0201],[-8.15386,40.01915],[-8.15132,40.01857],[-8.15047,40.01632],[-8.14827,40.01704],[-8.14815,40.01615],[-8.14508,40.01429],[-8.14522,40.0133],[-8.14397,40.01341],[-8.14348,40.01127],[-8.14254,40.01122],[-8.14308,40.01015],[-8.14158,40.00995],[-8.13996,40.00738],[-8.14124,40.00388],[-8.13965,40.00314],[-8.13787,40.00328],[-8.13802,40.00116],[-8.13912,40.00073],[-8.1394,39.99941],[-8.137,39.9997],[-8.13606,39.99873],[-8.13741,39.99759],[-8.13726,39.9963],[-8.13609,39.99613],[-8.13427,39.99711],[-8.13307,39.99525],[-8.132,39.99516],[-8.13226,39.9926],[-8.12974,39.99263],[-8.1265,39.99079],[-8.12531,39.98919],[-8.12601,39.98572],[-8.12059,39.98536],[-8.12081,39.98636],[-8.11961,39.98665],[-8.11896,39.9839],[-8.12158,39.98426],[-8.12,39.98293],[-8.12038,39.98185],[-8.11847,39.98214],[-8.11784,39.98122],[-8.11685,39.98182],[-8.11656,39.98013],[-8.1153,39.97874],[-8.11567,39.97708],[-8.11202,39.97545],[-8.1124,39.97297],[-8.10997,39.97152],[-8.11191,39.96674],[-8.10832,39.96316],[-8.10805,39.96213],[-8.10222,39.96023],[-8.10109,39.96052],[-8.10053,39.96204],[-8.10132,39.9633],[-8.10475,39.96566],[-8.10542,39.96745],[-8.10501,39.96919],[-8.10095,39.97005],[-8.09964,39.97318],[-8.0959,39.97333],[-8.09069,39.9768],[-8.08525,39.97889],[-8.09025,39.98173],[-8.08971,39.98401],[-8.09105,39.9873],[-8.09023,39.99004],[-8.08766,39.99067],[-8.08643,39.99282],[-8.0828,39.99481],[-8.07775,39.99225],[-8.07346,39.9936],[-8.0761,39.99669],[-8.07479,40.00082],[-8.07832,40.00173],[-8.07645,40.00593],[-8.0755,40.00579],[-8.07435,40.00437],[-8.07136,40.00451],[-8.06541,40.00845],[-8.06255,40.00898],[-8.06085,40.0108],[-8.0589,40.01014],[-8.05625,40.01037],[-8.05441,40.00959],[-8.05424,40.01045],[-8.05577,40.01196],[-8.05537,40.01365],[-8.05191,40.01504],[-8.04923,40.01899],[-8.04813,40.01765],[-8.04516,40.01676],[-8.04528,40.01484],[-8.04453,40.01421],[-8.04339,40.01471],[-8.04271,40.01707],[-8.0404,40.01983],[-8.03584,40.01665],[-8.03133,40.01652],[-8.03354,40.02043],[-8.03312,40.02328],[-8.03181,40.02404],[-8.03302,40.02534],[-8.03115,40.03071],[-8.03232,40.03246],[-8.0304,40.03477],[-8.03162,40.03786],[-8.03073,40.03923],[-8.03137,40.04137],[-8.03099,40.04432],[-8.03229,40.04532],[-8.03421,40.04999],[-8.03311,40.05175],[-8.03333,40.05317],[-8.03758,40.05855],[-8.03741,40.05992],[-8.04069,40.06414],[-8.04279,40.07736],[-8.04193,40.07923],[-8.05058,40.08318],[-8.05365,40.08547],[-8.06098,40.08841],[-8.0562,40.09516],[-8.05731,40.099],[-8.05439,40.09841],[-8.0518,40.10094],[-8.04309,40.10437],[-8.04017,40.10679],[-8.03897,40.10973],[-8.03118,40.11084],[-8.0258,40.11049],[-8.024,40.1114],[-8.01467,40.1122],[-8.01238,40.11188],[-8.00862,40.11313],[-8.00711,40.11437],[-8.00304,40.11468],[-7.99723,40.11434],[-7.99362,40.1122],[-7.98284,40.11089],[-7.98213,40.10955],[-7.97323,40.10499],[-7.96148,40.10365],[-7.95754,40.10385],[-7.95272,40.10716],[-7.95211,40.11038],[-7.9495,40.11422],[-7.94867,40.11727],[-7.952,40.11818],[-7.95715,40.1178],[-7.9643,40.12147],[-7.96301,40.12284],[-7.96529,40.12548],[-7.96491,40.12713],[-7.96656,40.13085],[-7.96819,40.1314],[-7.96928,40.13058],[-7.97414,40.13172],[-7.97394,40.13404],[-7.97591,40.13607],[-7.97423,40.13678],[-7.97706,40.13764],[-7.97702,40.13965],[-7.97913,40.13899],[-7.9791,40.13744],[-7.98143,40.13631],[-7.98447,40.13981],[-7.98573,40.1378],[-7.9881,40.13931],[-7.99164,40.14039],[-7.99272,40.13755],[-7.99393,40.13681],[-7.99539,40.13697],[-7.99492,40.13943],[-7.99196,40.14209],[-7.9909,40.14701],[-7.989,40.14845],[-7.99035,40.15041],[-7.98919,40.15094],[-7.98956,40.15223],[-7.9889,40.15333],[-7.98946,40.15388],[-7.98863,40.15462],[-7.99069,40.15644],[-7.98829,40.15974],[-7.98523,40.16718],[-7.98351,40.16782],[-7.98347,40.17094],[-7.98282,40.17155],[-7.98386,40.17255],[-7.98486,40.17783],[-7.99606,40.18878],[-7.99775,40.18839],[-8.00113,40.18595],[-8.00121,40.18118],[-8.00416,40.17387],[-8.01351,40.17191],[-8.01779,40.17366],[-8.02034,40.1738],[-8.02689,40.17205],[-8.03239,40.17378],[-8.03839,40.17173],[-8.04138,40.16939],[-8.04638,40.16841],[-8.04811,40.16955],[-8.04872,40.17091],[-8.05544,40.17162],[-8.06283,40.1672],[-8.06733,40.17016],[-8.07447,40.17225],[-8.07556,40.17783],[-8.08064,40.17988],[-8.08196,40.18224],[-8.08203,40.18735],[-8.09182,40.18966],[-8.09202,40.19473],[-8.09593,40.19744],[-8.09712,40.20093],[-8.10605,40.19786],[-8.1167,40.1967],[-8.12078,40.19492],[-8.12221,40.19772],[-8.12206,40.2017],[-8.12404,40.20278],[-8.12994,40.2025],[-8.13312,40.2035],[-8.13447,40.20477],[-8.13508,40.20828],[-8.14028,40.20907],[-8.14394,40.21106],[-8.14694,40.21042],[-8.1655,40.21286],[-8.1703,40.20896],[-8.17293,40.20453],[-8.17291,40.19687],[-8.16871,40.19236],[-8.16709,40.19191],[-8.16529,40.19014],[-8.16822,40.1887],[-8.16593,40.18483],[-8.16827,40.18436],[-8.16861,40.18305],[-8.16792,40.18127],[-8.16941,40.17706],[-8.17323,40.17634],[-8.17052,40.17158],[-8.16814,40.1698],[-8.16771,40.16862],[-8.16456,40.1667],[-8.15846,40.16102],[-8.15708,40.15584],[-8.15245,40.15091],[-8.15153,40.14783],[-8.15621,40.14318],[-8.15895,40.14201],[-8.1581,40.13801],[-8.1592,40.13228],[-8.16254,40.12989],[-8.16925,40.12282],[-8.16891,40.1137],[-8.17754,40.10337],[-8.17817,40.10116],[-8.18008,40.09953],[-8.18039,40.09826]]]]}},{"type":"Feature","properties":{"municipio":"Lousã","ine":"0607"},"geometry":{"type":"MultiPolygon","coordinates":[[[[-8.31147,40.11718],[-8.30292,40.10492],[-8.2994,40.10254],[-8.29771,40.1021],[-8.29689,40.10306],[-8.29591,40.10233],[-8.29517,40.09797],[-8.29592,40.09629],[-8.29756,40.09505],[-8.29703,40.09443],[-8.29061,40.09425],[-8.29016,40.09368],[-8.28483,40.09319],[-8.28139,40.0899],[-8.27523,40.08617],[-8.26948,40.08599],[-8.26593,40.08458],[-8.26201,40.0839],[-8.25528,40.07385],[-8.25232,40.07145],[-8.24781,40.06973],[-8.24364,40.06677],[-8.24223,40.0673],[-8.23538,40.06728],[-8.23151,40.06641],[-8.21195,40.05332],[-8.20975,40.05208],[-8.20904,40.05246],[-8.20817,40.05552],[-8.20874,40.05806],[-8.20613,40.06033],[-8.20527,40.06298],[-8.20401,40.06418],[-8.20143,40.06481],[-8.20071,40.06672],[-8.19865,40.06846],[-8.19362,40.07066],[-8.19081,40.07401],[-8.18844,40.07937],[-8.1791,40.08974],[-8.17828,40.09247],[-8.18002,40.09613],[-8.18036,40.09909],[-8.17844,40.10075],[-8.17754,40.10337],[-8.16891,40.1137],[-8.16936,40.12261],[-8.16254,40.12989],[-8.15921,40.13226],[-8.1581,40.13801],[-8.15895,40.14201],[-8.15621,40.14318],[-8.15153,40.14783],[-8.15245,40.15091],[-8.15708,40.15584],[-8.15846,40.16102],[-8.16456,40.1667],[-8.16771,40.16862],[-8.16814,40.1698],[-8.17052,40.17158],[-8.17323,40.17634],[-8.16941,40.17706],[-8.16792,40.18127],[-8.16861,40.18305],[-8.16827,40.18436],[-8.16593,40.18483],[-8.16822,40.1887],[-8.16529,40.19014],[-8.16709,40.19191],[-8.16871,40.19236],[-8.17291,40.19687],[-8.17295,40.20512],[-8.1736,40.20555],[-8.1753,40.2053],[-8.18287,40.20352],[-8.18484,40.20258],[-8.1843,40.20179],[-8.19369,40.19997],[-8.19377,40.19936],[-8.19645,40.19777],[-8.19668,40.19593],[-8.20253,40.1942],[-8.20497,40.19103],[-8.20965,40.1876],[-8.21685,40.18707],[-8.22035,40.18422],[-8.22551,40.18261],[-8.22635,40.18143],[-8.23139,40.17909],[-8.23697,40.17835],[-8.23791,40.17869],[-8.23891,40.17792],[-8.24143,40.17777],[-8.24556,40.1761],[-8.25402,40.17794],[-8.2599,40.18414],[-8.2741,40.18724],[-8.27992,40.18738],[-8.28772,40.18558],[-8.28893,40.18376],[-8.28932,40.17962],[-8.29031,40.17802],[-8.29409,40.17766],[-8.30259,40.18005],[-8.2995,40.17496],[-8.29686,40.17259],[-8.29681,40.17075],[-8.29164,40.16704],[-8.28819,40.16564],[-8.28954,40.16394],[-8.28864,40.16175],[-8.29077,40.16226],[-8.28925,40.16083],[-8.28956,40.15804],[-8.29118,40.15694],[-8.2935,40.15262],[-8.2955,40.15045],[-8.29277,40.14661],[-8.29273,40.14192],[-8.29167,40.13943],[-8.29671,40.13098],[-8.30121,40.127],[-8.30464,40.12111],[-8.30641,40.11926],[-8.31147,40.11718]]]]}},{"type":"Feature","properties":{"municipio":"Mealhada","ine":"0111"},"geometry":{"type":"MultiPolygon","coordinates":[[[[-8.52995,40.31473],[-8.52747,40.30639],[-8.52738,40.3029],[-8.52551,40.29951],[-8.52581,40.29372],[-8.52482,40.29135],[-8.52375,40.29058],[-8.52085,40.29186],[-8.51194,40.29092],[-8.50945,40.28933],[-8.50364,40.28945],[-8.49494,40.29058],[-8.4946,40.2901],[-8.4928,40.29038],[-8.48816,40.29218],[-8.47758,40.28841],[-8.46846,40.28881],[-8.46745,40.288],[-8.4677,40.28546],[-8.46691,40.28471],[-8.46762,40.28301],[-8.4657,40.28103],[-8.45948,40.27882],[-8.45436,40.27917],[-8.45374,40.28138],[-8.45204,40.2822],[-8.45089,40.28559],[-8.44734,40.28974],[-8.44635,40.29853],[-8.44938,40.30904],[-8.44844,40.31135],[-8.44943,40.31553],[-8.44907,40.31711],[-8.42935,40.32375],[-8.42443,40.32215],[-8.42005,40.32369],[-8.40959,40.32386],[-8.40911,40.33091],[-8.40134,40.34188],[-8.40484,40.34558],[-8.40558,40.34856],[-8.40516,40.35201],[-8.40396,40.34982],[-8.3942,40.34765],[-8.39281,40.34838],[-8.38694,40.34454],[-8.38557,40.34529],[-8.38282,40.34535],[-8.3813,40.34374],[-8.37533,40.3413],[-8.37122,40.34318],[-8.36966,40.34477],[-8.36017,40.34678],[-8.35723,40.34809],[-8.35468,40.36186],[-8.35622,40.36723],[-8.35917,40.36897],[-8.35945,40.37176],[-8.3584,40.3756],[-8.35441,40.37798],[-8.35601,40.3808],[-8.35423,40.385],[-8.35539,40.39064],[-8.35376,40.39192],[-8.3546,40.39382],[-8.35415,40.39561],[-8.35747,40.39661],[-8.36107,40.40053],[-8.36409,40.40238],[-8.36579,40.40206],[-8.36643,40.40111],[-8.37026,40.40024],[-8.37285,40.39794],[-8.37529,40.39772],[-8.37611,40.39712],[-8.38651,40.39758],[-8.3905,40.39873],[-8.39337,40.39814],[-8.39436,40.39887],[-8.39771,40.39865],[-8.40004,40.39933],[-8.4141,40.39831],[-8.42277,40.39623],[-8.43263,40.39536],[-8.43421,40.39554],[-8.43622,40.39767],[-8.44407,40.40101],[-8.452,40.3976],[-8.45921,40.40154],[-8.46249,40.40588],[-8.46496,40.40714],[-8.4697,40.40818],[-8.47016,40.40944],[-8.47321,40.41107],[-8.4788,40.41218],[-8.48494,40.41135],[-8.48985,40.41274],[-8.49734,40.41638],[-8.5053,40.41614],[-8.50813,40.40748],[-8.50505,40.40395],[-8.50476,40.40006],[-8.50279,40.39915],[-8.5002,40.40038],[-8.49882,40.40021],[-8.49709,40.39763],[-8.49687,40.39603],[-8.4934,40.39604],[-8.48331,40.38911],[-8.48126,40.38566],[-8.4837,40.38156],[-8.4842,40.37917],[-8.48416,40.37832],[-8.48099,40.37581],[-8.48317,40.37412],[-8.484,40.3711],[-8.48761,40.36848],[-8.48549,40.36654],[-8.48333,40.3658],[-8.48326,40.36277],[-8.48737,40.35545],[-8.48945,40.34886],[-8.49186,40.3456],[-8.49075,40.33892],[-8.48695,40.33442],[-8.48591,40.33203],[-8.48499,40.31534],[-8.48638,40.31495],[-8.49492,40.31542],[-8.49909,40.31392],[-8.51189,40.31224],[-8.51596,40.31252],[-8.51947,40.31413],[-8.52473,40.31528],[-8.52721,40.31503],[-8.5298,40.31566],[-8.52995,40.31473]]]]}},{"type":"Feature","properties":{"municipio":"Mira","ine":"0608"},"geometry":{"type":"MultiPolygon","coordinates":[[[[-8.82568,40.38894],[-8.77634,40.37891],[-8.76899,40.37668],[-8.75872,40.37638],[-8.74802,40.37736],[-8.73503,40.37685],[-8.73198,40.37448],[-8.72635,40.37196],[-8.71998,40.37207],[-8.71346,40.371],[-8.71221,40.37174],[-8.70765,40.37134],[-8.70728,40.37206],[-8.70561,40.37251],[-8.70273,40.37772],[-8.70371,40.37941],[-8.70169,40.38178],[-8.70147,40.38505],[-8.70217,40.38781],[-8.69862,40.39231],[-8.69937,40.39471],[-8.69876,40.3969],[-8.69807,40.39697],[-8.69741,40.39853],[-8.69654,40.39869],[-8.69646,40.40023],[-8.69124,40.40294],[-8.68747,40.40687],[-8.68709,40.40892],[-8.68798,40.41362],[-8.68992,40.41441],[-8.69108,40.41849],[-8.69236,40.42008],[-8.69265,40.42313],[-8.69223,40.4248],[-8.68696,40.42482],[-8.68394,40.42375],[-8.68197,40.42419],[-8.68226,40.42744],[-8.68349,40.42881],[-8.68416,40.4287],[-8.68515,40.43189],[-8.68334,40.43633],[-8.68724,40.4401],[-8.68387,40.44175],[-8.70179,40.45918],[-8.70678,40.46309],[-8.71395,40.4673],[-8.71902,40.47153],[-8.72059,40.47308],[-8.72066,40.47448],[-8.72971,40.4786],[-8.73597,40.48622],[-8.75308,40.49944],[-8.76694,40.51005],[-8.77738,40.51588],[-8.78403,40.52036],[-8.7932,40.4906],[-8.79486,40.48966],[-8.79372,40.48969],[-8.794,40.48809],[-8.80671,40.4512],[-8.81477,40.42447],[-8.81541,40.42003],[-8.81966,40.4071],[-8.82078,40.40554],[-8.82568,40.38894]]]]}},{"type":"Feature","properties":{"municipio":"Miranda do Corvo","ine":"0609"},"geometry":{"type":"MultiPolygon","coordinates":[[[[-8.40562,40.07793],[-8.40491,40.0764],[-8.4038,40.07595],[-8.39622,40.07812],[-8.39041,40.0708],[-8.38566,40.07054],[-8.38236,40.06581],[-8.37992,40.06567],[-8.37743,40.06828],[-8.37608,40.06823],[-8.37387,40.06543],[-8.37019,40.06485],[-8.36922,40.0613],[-8.36275,40.05648],[-8.36457,40.05319],[-8.36579,40.05264],[-8.36654,40.05342],[-8.3673,40.05321],[-8.36747,40.05118],[-8.36194,40.05185],[-8.36072,40.05316],[-8.35597,40.05262],[-8.3539,40.05107],[-8.35041,40.05079],[-8.34843,40.05004],[-8.34667,40.0469],[-8.33967,40.04543],[-8.33128,40.04532],[-8.32873,40.04377],[-8.32416,40.04355],[-8.31756,40.04019],[-8.31662,40.03772],[-8.3104,40.03393],[-8.30289,40.03288],[-8.29305,40.02884],[-8.28876,40.02626],[-8.28684,40.02606],[-8.28108,40.03081],[-8.28279,40.03431],[-8.28199,40.03645],[-8.27656,40.04123],[-8.27581,40.0454],[-8.27181,40.04805],[-8.27106,40.04961],[-8.26313,40.05364],[-8.26284,40.05221],[-8.26177,40.05216],[-8.2576,40.05313],[-8.25527,40.05248],[-8.25186,40.05341],[-8.24927,40.05469],[-8.2467,40.05727],[-8.24592,40.06174],[-8.2422,40.06402],[-8.24319,40.06682],[-8.24781,40.06973],[-8.25101,40.07071],[-8.25501,40.07351],[-8.26201,40.0839],[-8.26593,40.08458],[-8.26948,40.08599],[-8.27523,40.08617],[-8.28139,40.0899],[-8.28483,40.09319],[-8.29016,40.09368],[-8.29061,40.09425],[-8.29703,40.09443],[-8.29756,40.09505],[-8.29592,40.09629],[-8.29517,40.09797],[-8.29591,40.10233],[-8.29689,40.10306],[-8.29771,40.1021],[-8.2994,40.10254],[-8.30292,40.10492],[-8.31147,40.11718],[-8.30641,40.11926],[-8.30464,40.12111],[-8.30121,40.127],[-8.29671,40.13098],[-8.29167,40.13943],[-8.29273,40.14192],[-8.29277,40.14661],[-8.2955,40.15045],[-8.2935,40.15262],[-8.29118,40.15694],[-8.28956,40.15804],[-8.28925,40.16083],[-8.29077,40.16226],[-8.28864,40.16175],[-8.28954,40.16394],[-8.28819,40.16564],[-8.29164,40.16704],[-8.29681,40.17075],[-8.29686,40.17259],[-8.2995,40.17496],[-8.30259,40.18005],[-8.30686,40.18449],[-8.30851,40.18176],[-8.31062,40.18036],[-8.31122,40.18065],[-8.31131,40.18291],[-8.31058,40.18378],[-8.30952,40.18354],[-8.30802,40.18552],[-8.3129,40.19085],[-8.32962,40.1925],[-8.33452,40.19374],[-8.34001,40.19332],[-8.34446,40.19438],[-8.34676,40.19358],[-8.34647,40.19131],[-8.34517,40.18921],[-8.34635,40.18715],[-8.34611,40.18393],[-8.3467,40.18311],[-8.35003,40.18279],[-8.35289,40.18135],[-8.35548,40.18201],[-8.35699,40.18331],[-8.36085,40.18233],[-8.36361,40.18314],[-8.36718,40.18111],[-8.36801,40.17476],[-8.36525,40.17027],[-8.36504,40.16848],[-8.36212,40.16585],[-8.36205,40.16388],[-8.35966,40.16271],[-8.35322,40.16133],[-8.34956,40.15853],[-8.34796,40.15615],[-8.34968,40.15568],[-8.35148,40.15352],[-8.35147,40.15242],[-8.35277,40.15594],[-8.35446,40.15822],[-8.35552,40.15881],[-8.3567,40.15833],[-8.36104,40.16126],[-8.36379,40.16219],[-8.36857,40.15954],[-8.36896,40.15767],[-8.37424,40.15659],[-8.37637,40.15731],[-8.37828,40.15682],[-8.3796,40.15498],[-8.3792,40.15421],[-8.37719,40.15439],[-8.37493,40.15589],[-8.37394,40.15531],[-8.3738,40.15391],[-8.37417,40.15201],[-8.37527,40.15163],[-8.37558,40.15027],[-8.379,40.1479],[-8.3774,40.14706],[-8.37522,40.14822],[-8.37285,40.14809],[-8.37144,40.14458],[-8.37307,40.14363],[-8.37065,40.14323],[-8.36931,40.14183],[-8.36511,40.14069],[-8.36614,40.14014],[-8.36952,40.14059],[-8.36981,40.13976],[-8.36909,40.1388],[-8.36674,40.13874],[-8.36553,40.13789],[-8.36374,40.13969],[-8.36244,40.13846],[-8.36069,40.13803],[-8.35812,40.1309],[-8.35968,40.12779],[-8.35929,40.12486],[-8.36106,40.12434],[-8.36414,40.1251],[-8.36049,40.12187],[-8.36273,40.11783],[-8.36397,40.1168],[-8.36392,40.11601],[-8.36514,40.11515],[-8.36967,40.11501],[-8.37815,40.11367],[-8.37906,40.11107],[-8.38121,40.10872],[-8.39329,40.10269],[-8.40363,40.09892],[-8.40089,40.09348],[-8.40093,40.0919],[-8.3982,40.08476],[-8.40196,40.08237],[-8.40562,40.07793]]]]}},{"type":"Feature","properties":{"municipio":"Montemor-o-Velho","ine":"0610"},"geometry":{"type":"MultiPolygon","coordinates":[[[[-8.77512,40.11414],[-8.77374,40.11366],[-8.7711,40.11706],[-8.76779,40.11882],[-8.76502,40.11796],[-8.76256,40.11953],[-8.75468,40.12014],[-8.75182,40.12188],[-8.74603,40.11897],[-8.74331,40.11598],[-8.74169,40.11562],[-8.74013,40.11441],[-8.7402,40.11493],[-8.73832,40.11492],[-8.73661,40.11391],[-8.73385,40.11359],[-8.73243,40.11405],[-8.72887,40.11311],[-8.72802,40.11371],[-8.72364,40.11389],[-8.72027,40.11583],[-8.71577,40.11676],[-8.71294,40.11614],[-8.71031,40.11393],[-8.70714,40.11368],[-8.70605,40.11421],[-8.70098,40.11456],[-8.6974,40.11399],[-8.69618,40.11242],[-8.69359,40.11211],[-8.69221,40.11318],[-8.68823,40.11432],[-8.68154,40.11334],[-8.67485,40.12147],[-8.66645,40.12374],[-8.66601,40.12261],[-8.6634,40.1237],[-8.66201,40.12018],[-8.6474,40.12669],[-8.66191,40.1391],[-8.67007,40.14339],[-8.67365,40.1475],[-8.67684,40.14832],[-8.68006,40.14774],[-8.67714,40.15292],[-8.67555,40.15862],[-8.6699,40.17183],[-8.6671,40.17414],[-8.65561,40.17583],[-8.65139,40.17496],[-8.64319,40.17102],[-8.63529,40.16941],[-8.63464,40.1676],[-8.63164,40.16677],[-8.63074,40.16586],[-8.61693,40.1659],[-8.6081,40.163],[-8.5961,40.16046],[-8.59377,40.15852],[-8.58979,40.15651],[-8.57751,40.15176],[-8.56389,40.14256],[-8.55865,40.1404],[-8.55435,40.14034],[-8.55042,40.15113],[-8.55602,40.16442],[-8.55587,40.16806],[-8.55789,40.1698],[-8.56204,40.17657],[-8.56299,40.17716],[-8.56286,40.17823],[-8.56409,40.18021],[-8.56269,40.181],[-8.56328,40.1829],[-8.56178,40.18574],[-8.56224,40.18964],[-8.56139,40.19066],[-8.56089,40.19492],[-8.55954,40.19715],[-8.54751,40.19965],[-8.55162,40.21484],[-8.56921,40.21558],[-8.56951,40.21786],[-8.575,40.2232],[-8.57684,40.22721],[-8.57766,40.23223],[-8.57558,40.23879],[-8.57574,40.24143],[-8.58272,40.24754],[-8.58352,40.24917],[-8.58268,40.25047],[-8.58545,40.25325],[-8.58511,40.25704],[-8.5887,40.26232],[-8.59168,40.26358],[-8.58699,40.27116],[-8.58786,40.27321],[-8.58724,40.27451],[-8.58839,40.27632],[-8.58843,40.28244],[-8.59479,40.2814],[-8.59644,40.28009],[-8.59752,40.2776],[-8.59929,40.27592],[-8.60859,40.27228],[-8.6089,40.27324],[-8.61481,40.27416],[-8.61839,40.27658],[-8.61606,40.27757],[-8.61324,40.28055],[-8.61548,40.28312],[-8.63157,40.29295],[-8.62876,40.29643],[-8.62969,40.29691],[-8.63107,40.30018],[-8.63377,40.30356],[-8.63622,40.30034],[-8.63803,40.30129],[-8.64151,40.30117],[-8.64495,40.30182],[-8.65036,40.29991],[-8.65086,40.29803],[-8.65295,40.29848],[-8.65447,40.29953],[-8.66805,40.29923],[-8.67816,40.29997],[-8.68375,40.30177],[-8.68732,40.30175],[-8.6935,40.30403],[-8.71306,40.30535],[-8.72191,40.30527],[-8.727,40.30641],[-8.7295,40.30823],[-8.74524,40.31104],[-8.74701,40.30663],[-8.74352,40.29933],[-8.74125,40.29661],[-8.74076,40.29452],[-8.74196,40.29352],[-8.73904,40.28236],[-8.74049,40.28132],[-8.74055,40.27957],[-8.73761,40.27591],[-8.73843,40.27181],[-8.73807,40.26975],[-8.73984,40.26442],[-8.73752,40.26078],[-8.73792,40.25663],[-8.73737,40.25461],[-8.73424,40.25154],[-8.73244,40.24713],[-8.73006,40.24543],[-8.72763,40.2413],[-8.72758,40.23991],[-8.72411,40.23779],[-8.72303,40.23539],[-8.72004,40.23255],[-8.71865,40.22902],[-8.71727,40.22897],[-8.71692,40.22824],[-8.71703,40.22471],[-8.71934,40.22026],[-8.71907,40.21564],[-8.71485,40.20886],[-8.71021,40.19776],[-8.70988,40.19548],[-8.71106,40.19217],[-8.70014,40.19112],[-8.70058,40.18879],[-8.70721,40.18072],[-8.70423,40.18014],[-8.70176,40.17788],[-8.70394,40.17451],[-8.70295,40.17244],[-8.70029,40.17337],[-8.69988,40.1729],[-8.71122,40.16482],[-8.70866,40.16274],[-8.73635,40.1486],[-8.73635,40.1472],[-8.74016,40.14634],[-8.75487,40.14062],[-8.76063,40.1376],[-8.76478,40.1336],[-8.77035,40.12526],[-8.77259,40.11753],[-8.77512,40.11414]],[[-8.57878,40.15641],[-8.57846,40.15772],[-8.57309,40.15433],[-8.57358,40.15372],[-8.57509,40.15355],[-8.57668,40.15542],[-8.57878,40.15641]]]]}},{"type":"Feature","properties":{"municipio":"Mortágua","ine":"1808"},"geometry":{"type":"MultiPolygon","coordinates":[[[[-8.35945,40.37176],[-8.35917,40.36897],[-8.35606,40.36719],[-8.35512,40.36895],[-8.35228,40.37014],[-8.34652,40.3708],[-8.34296,40.36991],[-8.34079,40.36785],[-8.33999,40.36532],[-8.33712,40.36314],[-8.33454,40.35914],[-8.32922,40.35477],[-8.32518,40.35478],[-8.32542,40.36143],[-8.32258,40.36117],[-8.32029,40.36202],[-8.31195,40.3618],[-8.29965,40.35817],[-8.29315,40.3543],[-8.29297,40.35145],[-8.28946,40.34757],[-8.28834,40.34682],[-8.28529,40.34653],[-8.2849,40.34535],[-8.284,40.34516],[-8.28456,40.34471],[-8.28273,40.34485],[-8.28109,40.34026],[-8.27649,40.33569],[-8.27036,40.33543],[-8.26341,40.33382],[-8.26332,40.33235],[-8.25912,40.3275],[-8.25783,40.32747],[-8.25446,40.32458],[-8.25085,40.32323],[-8.24713,40.32358],[-8.24258,40.32653],[-8.23976,40.32553],[-8.23701,40.32264],[-8.2332,40.32284],[-8.23291,40.3255],[-8.23215,40.32431],[-8.23181,40.32494],[-8.23129,40.32873],[-8.23183,40.33153],[-8.22718,40.33281],[-8.22454,40.33498],[-8.22081,40.33591],[-8.21061,40.34131],[-8.20812,40.34129],[-8.19937,40.33882],[-8.19784,40.33939],[-8.19367,40.34307],[-8.19224,40.34329],[-8.18912,40.34204],[-8.18682,40.33845],[-8.18319,40.33873],[-8.18142,40.3395],[-8.18031,40.3424],[-8.18164,40.34784],[-8.18044,40.34897],[-8.17649,40.34987],[-8.17496,40.35097],[-8.17562,40.3548],[-8.17417,40.35743],[-8.17442,40.36302],[-8.17283,40.36409],[-8.16802,40.36455],[-8.1652,40.36744],[-8.16623,40.36892],[-8.16932,40.3679],[-8.17228,40.36921],[-8.17337,40.37023],[-8.17224,40.3713],[-8.17569,40.37434],[-8.17851,40.37534],[-8.17876,40.3762],[-8.17769,40.37754],[-8.17742,40.38098],[-8.17536,40.38248],[-8.173,40.38223],[-8.17178,40.38349],[-8.17212,40.38427],[-8.17435,40.38508],[-8.1742,40.38626],[-8.17124,40.387],[-8.16797,40.38663],[-8.16297,40.39169],[-8.16293,40.3932],[-8.16521,40.39571],[-8.16447,40.39685],[-8.16147,40.39806],[-8.16007,40.40289],[-8.16087,40.40353],[-8.16677,40.40283],[-8.16753,40.40357],[-8.16794,40.40479],[-8.16714,40.40605],[-8.16145,40.40915],[-8.16452,40.41073],[-8.16481,40.41304],[-8.16846,40.41633],[-8.16872,40.41775],[-8.16792,40.41826],[-8.16647,40.41772],[-8.16529,40.41821],[-8.16641,40.42717],[-8.16348,40.43016],[-8.16188,40.43368],[-8.16203,40.43687],[-8.15906,40.43898],[-8.16059,40.44389],[-8.15767,40.44651],[-8.15787,40.44924],[-8.15945,40.44885],[-8.16083,40.44973],[-8.16194,40.44797],[-8.16461,40.45025],[-8.16533,40.45514],[-8.16765,40.46013],[-8.16655,40.46167],[-8.16958,40.46461],[-8.1692,40.46702],[-8.1703,40.46875],[-8.173,40.4705],[-8.17509,40.47033],[-8.17699,40.47111],[-8.17775,40.4706],[-8.1784,40.47156],[-8.17917,40.47085],[-8.18173,40.47127],[-8.18242,40.47072],[-8.18427,40.47097],[-8.1868,40.4731],[-8.19143,40.4724],[-8.19248,40.47447],[-8.19338,40.47446],[-8.19597,40.47657],[-8.19601,40.47775],[-8.1978,40.47806],[-8.19879,40.47727],[-8.20095,40.47934],[-8.19873,40.48241],[-8.19886,40.48426],[-8.20188,40.48837],[-8.202,40.48973],[-8.2038,40.4916],[-8.2039,40.49464],[-8.20555,40.49819],[-8.20736,40.49963],[-8.20825,40.50268],[-8.21271,40.50501],[-8.21183,40.5064],[-8.21326,40.50683],[-8.21206,40.50789],[-8.21267,40.50936],[-8.21473,40.50833],[-8.21594,40.50839],[-8.21527,40.51008],[-8.21627,40.51062],[-8.21697,40.51006],[-8.21855,40.51078],[-8.21985,40.51415],[-8.22251,40.51434],[-8.22623,40.51624],[-8.23172,40.51696],[-8.24036,40.51546],[-8.24293,40.51383],[-8.25066,40.51489],[-8.24996,40.51418],[-8.25052,40.51314],[-8.25009,40.5111],[-8.25242,40.51082],[-8.25383,40.50861],[-8.25576,40.50765],[-8.26023,40.50691],[-8.26389,40.50347],[-8.26587,40.50343],[-8.26827,40.50537],[-8.27404,40.50792],[-8.27721,40.50788],[-8.28285,40.50917],[-8.28692,40.50687],[-8.28946,40.50672],[-8.29488,40.50178],[-8.29752,40.50093],[-8.29943,40.49911],[-8.30342,40.4988],[-8.30514,40.49768],[-8.31298,40.49576],[-8.31443,40.49471],[-8.32355,40.49269],[-8.32511,40.49176],[-8.32801,40.49223],[-8.32914,40.49325],[-8.33027,40.49299],[-8.33126,40.48934],[-8.33559,40.48597],[-8.33366,40.48513],[-8.33473,40.48279],[-8.33268,40.48196],[-8.33579,40.48095],[-8.33464,40.47875],[-8.33489,40.47546],[-8.33187,40.47158],[-8.32829,40.47005],[-8.32839,40.46754],[-8.32317,40.46367],[-8.32139,40.46001],[-8.3188,40.45708],[-8.31805,40.45343],[-8.31835,40.45195],[-8.31987,40.45051],[-8.31994,40.44778],[-8.31758,40.4412],[-8.32029,40.43946],[-8.32422,40.44015],[-8.32677,40.43996],[-8.32844,40.43845],[-8.33184,40.4372],[-8.3317,40.43653],[-8.33499,40.43411],[-8.3374,40.43006],[-8.34086,40.42868],[-8.34453,40.42502],[-8.34483,40.42304],[-8.34045,40.42189],[-8.33805,40.41881],[-8.34578,40.41053],[-8.35487,40.40886],[-8.35401,40.40539],[-8.35196,40.40325],[-8.35213,40.39994],[-8.35015,40.39713],[-8.3545,40.39532],[-8.35376,40.39192],[-8.35539,40.39064],[-8.35423,40.385],[-8.35601,40.38077],[-8.35441,40.37798],[-8.3584,40.3756],[-8.35945,40.37176]]]]}},{"type":"Feature","properties":{"municipio":"Oliveira do Hospital","ine":"0611"},"geometry":{"type":"MultiPolygon","coordinates":[[[[-7.98174,40.31846],[-7.97502,40.31348],[-7.97479,40.31225],[-7.97265,40.31029],[-7.97209,40.30708],[-7.96726,40.30497],[-7.96732,40.30413],[-7.96249,40.29722],[-7.95854,40.29737],[-7.95693,40.29653],[-7.95155,40.30079],[-7.94768,40.30179],[-7.94597,40.30061],[-7.94853,40.29642],[-7.94493,40.29482],[-7.94292,40.29321],[-7.94342,40.29208],[-7.94556,40.29091],[-7.94975,40.28623],[-7.94938,40.28489],[-7.94775,40.28384],[-7.9459,40.28325],[-7.94465,40.28372],[-7.94133,40.28643],[-7.93957,40.28682],[-7.93761,40.28953],[-7.92764,40.29082],[-7.92528,40.29325],[-7.92227,40.29404],[-7.92133,40.28894],[-7.92052,40.2878],[-7.92066,40.28572],[-7.91193,40.28661],[-7.90285,40.28233],[-7.90244,40.28126],[-7.88844,40.28346],[-7.88315,40.28546],[-7.8835,40.28143],[-7.87956,40.28001],[-7.87641,40.27964],[-7.87558,40.27787],[-7.86598,40.27503],[-7.86256,40.27248],[-7.85624,40.2713],[-7.85166,40.26699],[-7.84925,40.26305],[-7.84674,40.26092],[-7.84298,40.25943],[-7.83413,40.26212],[-7.82553,40.2663],[-7.82459,40.26736],[-7.82062,40.26798],[-7.81827,40.26936],[-7.81687,40.27169],[-7.81665,40.2754],[-7.81817,40.28216],[-7.81337,40.28421],[-7.80885,40.29101],[-7.80708,40.29499],[-7.80687,40.29824],[-7.8077,40.29905],[-7.80625,40.3005],[-7.80592,40.30313],[-7.80644,40.30398],[-7.80436,40.30758],[-7.80117,40.30946],[-7.79734,40.30852],[-7.79324,40.309],[-7.79127,40.31252],[-7.7896,40.31392],[-7.77901,40.31844],[-7.77558,40.31623],[-7.77211,40.31544],[-7.76519,40.31649],[-7.76181,40.32472],[-7.76101,40.32887],[-7.75821,40.33176],[-7.75917,40.33495],[-7.76017,40.33585],[-7.76463,40.33658],[-7.76992,40.33564],[-7.77057,40.33822],[-7.77255,40.33927],[-7.77474,40.33839],[-7.77764,40.33583],[-7.78253,40.33835],[-7.78395,40.34001],[-7.78642,40.34587],[-7.80506,40.3493],[-7.80452,40.35797],[-7.79758,40.36136],[-7.79636,40.36437],[-7.79699,40.36626],[-7.79962,40.36919],[-7.79942,40.37011],[-7.79586,40.37359],[-7.79676,40.37555],[-7.79673,40.37854],[-7.79837,40.381],[-7.79877,40.38874],[-7.79745,40.39471],[-7.79815,40.40078],[-7.79717,40.40505],[-7.80041,40.4059],[-7.8091,40.40577],[-7.82688,40.40322],[-7.83397,40.40851],[-7.84513,40.41409],[-7.84546,40.42404],[-7.84923,40.42753],[-7.84823,40.42887],[-7.84496,40.43075],[-7.84256,40.43328],[-7.83483,40.43541],[-7.82586,40.44058],[-7.82409,40.44019],[-7.8202,40.44146],[-7.81725,40.44134],[-7.81433,40.43968],[-7.81087,40.43934],[-7.79695,40.45742],[-7.80416,40.4635],[-7.81343,40.4694],[-7.81796,40.47571],[-7.8273,40.48182],[-7.82894,40.49435],[-7.82832,40.49855],[-7.83167,40.49813],[-7.83664,40.4957],[-7.83887,40.49372],[-7.84132,40.49313],[-7.84449,40.49323],[-7.84524,40.49523],[-7.84668,40.49562],[-7.85002,40.49324],[-7.85179,40.49068],[-7.85663,40.48964],[-7.85909,40.48758],[-7.86065,40.4878],[-7.86248,40.4868],[-7.8643,40.48516],[-7.86708,40.47953],[-7.86883,40.47871],[-7.87229,40.47912],[-7.88033,40.47529],[-7.88037,40.47406],[-7.88165,40.47303],[-7.88424,40.47315],[-7.89429,40.46212],[-7.89928,40.46165],[-7.90162,40.46009],[-7.90397,40.45722],[-7.90311,40.45589],[-7.90422,40.45319],[-7.91241,40.44985],[-7.9175,40.44661],[-7.91746,40.44551],[-7.91887,40.44363],[-7.91772,40.44102],[-7.92121,40.44],[-7.92423,40.43551],[-7.92725,40.43449],[-7.92868,40.43308],[-7.9292,40.43086],[-7.93072,40.42902],[-7.93292,40.42814],[-7.93622,40.42846],[-7.93731,40.42768],[-7.93715,40.42619],[-7.93831,40.42504],[-7.9427,40.42494],[-7.94751,40.42269],[-7.94504,40.42113],[-7.94359,40.41898],[-7.94211,40.41885],[-7.94135,40.41938],[-7.94022,40.41854],[-7.9383,40.41835],[-7.93926,40.41629],[-7.93859,40.41498],[-7.93983,40.41102],[-7.93685,40.4098],[-7.93451,40.41045],[-7.93421,40.408],[-7.93551,40.40569],[-7.93479,40.40319],[-7.93258,40.40225],[-7.93116,40.40246],[-7.92739,40.40149],[-7.92466,40.39885],[-7.9212,40.39792],[-7.92005,40.39603],[-7.91411,40.39239],[-7.91318,40.391],[-7.9127,40.38494],[-7.91707,40.38017],[-7.9176,40.3784],[-7.91875,40.37789],[-7.91991,40.37568],[-7.92125,40.37543],[-7.92233,40.37218],[-7.92115,40.37135],[-7.91867,40.37192],[-7.91738,40.37135],[-7.91294,40.37133],[-7.91203,40.37047],[-7.91048,40.37084],[-7.91034,40.37013],[-7.90835,40.36941],[-7.90716,40.37037],[-7.90582,40.37023],[-7.9057,40.36948],[-7.90382,40.3691],[-7.90297,40.36825],[-7.90101,40.36454],[-7.90494,40.36048],[-7.90764,40.35905],[-7.90845,40.35673],[-7.89897,40.35335],[-7.90351,40.3416],[-7.91057,40.33937],[-7.91258,40.33714],[-7.91208,40.33688],[-7.91259,40.33621],[-7.91126,40.33476],[-7.91172,40.33134],[-7.91103,40.33032],[-7.91129,40.32777],[-7.91044,40.32631],[-7.91732,40.32229],[-7.92672,40.32394],[-7.92878,40.32496],[-7.93065,40.32509],[-7.93207,40.32616],[-7.93987,40.32739],[-7.94217,40.32896],[-7.9442,40.32857],[-7.94944,40.32906],[-7.9528,40.3276],[-7.96256,40.32767],[-7.96578,40.3266],[-7.97117,40.32653],[-7.97637,40.32555],[-7.97872,40.32405],[-7.98121,40.32118],[-7.98044,40.32096],[-7.98174,40.31846]]]]}},{"type":"Feature","properties":{"municipio":"Pampilhosa da Serra","ine":"0612"},"geometry":{"type":"MultiPolygon","coordinates":[[[[-8.13273,39.93764],[-8.13131,39.93614],[-8.12689,39.93489],[-8.12409,39.93287],[-8.11868,39.93409],[-8.12071,39.9388],[-8.12041,39.94264],[-8.11816,39.94619],[-8.11464,39.94869],[-8.11292,39.94845],[-8.10266,39.94263],[-8.09896,39.94121],[-8.09045,39.94142],[-8.08782,39.9425],[-8.08229,39.94768],[-8.08309,39.94944],[-8.08724,39.95279],[-8.08817,39.95488],[-8.08688,39.96438],[-8.08581,39.96532],[-8.08359,39.96504],[-8.07873,39.96133],[-8.07961,39.9583],[-8.07921,39.95732],[-8.07293,39.95679],[-8.06585,39.95462],[-8.06179,39.95592],[-8.06047,39.96087],[-8.05796,39.9649],[-8.05799,39.96832],[-8.05641,39.96968],[-8.04923,39.96338],[-8.04719,39.96322],[-8.04375,39.96393],[-8.03883,39.96358],[-8.03675,39.96268],[-8.03485,39.96072],[-8.03333,39.96052],[-8.03037,39.96299],[-8.02987,39.96503],[-8.03415,39.97033],[-8.03647,39.97689],[-8.03159,39.9846],[-8.02913,39.98329],[-8.02901,39.9802],[-8.02817,39.97847],[-8.02592,39.97737],[-8.024,39.97509],[-8.01728,39.97114],[-8.01596,39.9714],[-8.01428,39.97319],[-8.01263,39.97394],[-8.01026,39.97369],[-8.00669,39.97202],[-8.00517,39.97269],[-8.00807,39.98027],[-8.01195,39.98241],[-8.01412,39.98468],[-8.01533,39.98833],[-8.01389,39.98926],[-8.00989,39.98883],[-8.00726,39.9876],[-8.00223,39.98367],[-7.99931,39.97906],[-7.99748,39.97809],[-7.99,39.97849],[-7.99271,39.98581],[-7.98952,39.98888],[-7.984,39.98974],[-7.97734,39.9891],[-7.97464,39.98827],[-7.97231,39.98651],[-7.96853,39.98013],[-7.96328,39.97721],[-7.96198,39.97793],[-7.96357,39.98211],[-7.96357,39.98531],[-7.9598,39.98842],[-7.95888,39.99069],[-7.95482,39.9921],[-7.95358,39.99519],[-7.95281,40.00249],[-7.94068,39.99979],[-7.93471,40.00201],[-7.92675,39.99951],[-7.91938,39.99849],[-7.91678,39.99929],[-7.91379,40.00127],[-7.91591,40.00598],[-7.91474,40.00744],[-7.9132,40.0071],[-7.90885,40.00393],[-7.90196,40.00286],[-7.90184,40.00586],[-7.90614,40.0088],[-7.9057,40.01181],[-7.90673,40.01203],[-7.90703,40.01292],[-7.90639,40.01347],[-7.9075,40.01435],[-7.90715,40.01501],[-7.90832,40.01524],[-7.90773,40.0173],[-7.90852,40.01803],[-7.90846,40.02064],[-7.91048,40.0226],[-7.90847,40.02527],[-7.91018,40.02645],[-7.91282,40.02607],[-7.91591,40.03277],[-7.90287,40.04257],[-7.89976,40.04344],[-7.89541,40.04167],[-7.89182,40.04141],[-7.88441,40.04571],[-7.88003,40.0462],[-7.87506,40.0491],[-7.87068,40.05009],[-7.86461,40.05506],[-7.86428,40.05804],[-7.86178,40.05888],[-7.86077,40.05851],[-7.85985,40.05905],[-7.85509,40.05899],[-7.84828,40.05399],[-7.84432,40.05279],[-7.84244,40.05304],[-7.83733,40.05099],[-7.83218,40.05041],[-7.82485,40.05057],[-7.81384,40.03928],[-7.80831,40.03574],[-7.80729,40.03699],[-7.80847,40.04059],[-7.80156,40.04478],[-7.80081,40.04772],[-7.80139,40.04843],[-7.8034,40.04855],[-7.80569,40.04715],[-7.80815,40.04739],[-7.80957,40.0496],[-7.80914,40.05234],[-7.80556,40.05688],[-7.80021,40.05818],[-7.79959,40.05951],[-7.80023,40.06122],[-7.80396,40.06387],[-7.8062,40.06649],[-7.80681,40.06796],[-7.80642,40.07026],[-7.80579,40.07161],[-7.80401,40.07297],[-7.79716,40.07608],[-7.79654,40.07712],[-7.79767,40.07831],[-7.7999,40.07855],[-7.80444,40.0757],[-7.81215,40.07347],[-7.81607,40.07467],[-7.81728,40.07642],[-7.81693,40.07727],[-7.81545,40.07829],[-7.81068,40.0773],[-7.80652,40.07868],[-7.80364,40.08162],[-7.80064,40.08358],[-7.80128,40.08667],[-7.79993,40.08782],[-7.796,40.08739],[-7.79233,40.08573],[-7.78734,40.08602],[-7.78691,40.08542],[-7.78761,40.08461],[-7.79141,40.08308],[-7.79099,40.08039],[-7.7875,40.07654],[-7.78475,40.07156],[-7.77935,40.06866],[-7.77652,40.06443],[-7.77332,40.06403],[-7.77247,40.06491],[-7.77258,40.06596],[-7.77639,40.06859],[-7.77521,40.071],[-7.77093,40.07474],[-7.76624,40.07544],[-7.76351,40.07675],[-7.7605,40.07955],[-7.75767,40.08362],[-7.75416,40.08628],[-7.75167,40.08757],[-7.74918,40.08777],[-7.74298,40.09209],[-7.74162,40.09544],[-7.74248,40.09709],[-7.74503,40.09789],[-7.75087,40.09755],[-7.75166,40.0999],[-7.74836,40.10138],[-7.74388,40.1018],[-7.73956,40.10436],[-7.73757,40.10435],[-7.73465,40.10341],[-7.73214,40.10504],[-7.73176,40.106],[-7.73358,40.10712],[-7.73495,40.11153],[-7.73459,40.1198],[-7.73642,40.12444],[-7.74022,40.12671],[-7.74386,40.12754],[-7.74767,40.13021],[-7.75015,40.13044],[-7.75474,40.13235],[-7.75671,40.13516],[-7.75888,40.1358],[-7.76533,40.13993],[-7.76883,40.14139],[-7.77387,40.14503],[-7.77448,40.15047],[-7.77358,40.15403],[-7.77612,40.15757],[-7.78107,40.15891],[-7.78579,40.15923],[-7.79067,40.15823],[-7.79417,40.15945],[-7.79654,40.16124],[-7.79919,40.16393],[-7.8015,40.16807],[-7.80079,40.17586],[-7.80347,40.17876],[-7.80758,40.18166],[-7.80904,40.18178],[-7.80808,40.18464],[-7.81087,40.19082],[-7.81391,40.19543],[-7.81755,40.19608],[-7.8186,40.19843],[-7.82494,40.20235],[-7.82817,40.20346],[-7.83742,40.19649],[-7.83783,40.18955],[-7.83962,40.18628],[-7.84065,40.18837],[-7.8429,40.18731],[-7.84309,40.18848],[-7.84516,40.18959],[-7.85007,40.19438],[-7.85432,40.19396],[-7.8655,40.18977],[-7.8678,40.1901],[-7.87464,40.19408],[-7.87546,40.19705],[-7.87314,40.2036],[-7.87646,40.21037],[-7.8828,40.21089],[-7.88485,40.20958],[-7.88814,40.20893],[-7.88864,40.20801],[-7.89167,40.20632],[-7.89259,40.20287],[-7.89624,40.20156],[-7.89824,40.19745],[-7.89976,40.19715],[-7.89942,40.19576],[-7.90333,40.19104],[-7.90205,40.19021],[-7.90206,40.18913],[-7.90401,40.18383],[-7.91064,40.1807],[-7.91105,40.1791],[-7.91044,40.17613],[-7.91109,40.1752],[-7.91218,40.17542],[-7.91314,40.17426],[-7.9177,40.17295],[-7.91847,40.17343],[-7.92384,40.16858],[-7.92674,40.17028],[-7.92917,40.16864],[-7.93098,40.1703],[-7.93223,40.16984],[-7.93631,40.17026],[-7.93788,40.16724],[-7.93948,40.16667],[-7.94119,40.16425],[-7.94314,40.16316],[-7.94314,40.16041],[-7.94506,40.16167],[-7.94756,40.16051],[-7.94695,40.16209],[-7.9479,40.16237],[-7.951,40.15895],[-7.95076,40.15787],[-7.9484,40.15758],[-7.94986,40.15549],[-7.94861,40.15418],[-7.94733,40.15398],[-7.94727,40.15338],[-7.94987,40.15402],[-7.9526,40.15329],[-7.95446,40.15343],[-7.9563,40.1517],[-7.95908,40.15325],[-7.96095,40.15102],[-7.96096,40.1527],[-7.96357,40.15226],[-7.96444,40.15118],[-7.96274,40.15049],[-7.96222,40.14857],[-7.96794,40.1439],[-7.96713,40.14349],[-7.96453,40.14482],[-7.96388,40.14378],[-7.96452,40.1428],[-7.96942,40.14138],[-7.96999,40.13939],[-7.97188,40.13779],[-7.97757,40.1399],[-7.97688,40.13945],[-7.97706,40.13764],[-7.97423,40.13678],[-7.97591,40.13607],[-7.97394,40.13404],[-7.97414,40.13172],[-7.96928,40.13058],[-7.96819,40.1314],[-7.96656,40.13085],[-7.96491,40.12713],[-7.96529,40.12548],[-7.96301,40.12284],[-7.9643,40.12147],[-7.95715,40.1178],[-7.952,40.11818],[-7.94867,40.11727],[-7.9495,40.11422],[-7.95211,40.11038],[-7.95272,40.10716],[-7.95639,40.10439],[-7.95754,40.10385],[-7.96148,40.10365],[-7.97316,40.10498],[-7.98213,40.10955],[-7.98284,40.11089],[-7.99362,40.1122],[-7.99743,40.11438],[-8.00441,40.11461],[-8.00711,40.11437],[-8.00862,40.11313],[-8.01238,40.11188],[-8.01467,40.1122],[-8.024,40.1114],[-8.0258,40.11049],[-8.03118,40.11084],[-8.03897,40.10973],[-8.04017,40.10679],[-8.04309,40.10437],[-8.0518,40.10094],[-8.05439,40.09841],[-8.05734,40.09897],[-8.0562,40.09516],[-8.06098,40.08841],[-8.05365,40.08547],[-8.05058,40.08318],[-8.04193,40.07923],[-8.04279,40.07736],[-8.04069,40.06414],[-8.03741,40.05992],[-8.03758,40.05855],[-8.03333,40.05317],[-8.03311,40.05175],[-8.03421,40.04999],[-8.03229,40.04532],[-8.03099,40.04432],[-8.03137,40.04137],[-8.03073,40.03923],[-8.03162,40.03786],[-8.0304,40.03477],[-8.03232,40.03246],[-8.03115,40.03071],[-8.03302,40.02534],[-8.03181,40.02404],[-8.03312,40.02328],[-8.03354,40.02043],[-8.03138,40.01642],[-8.03584,40.01665],[-8.0404,40.01983],[-8.04271,40.01707],[-8.04339,40.01471],[-8.04453,40.01421],[-8.04528,40.01484],[-8.04516,40.01676],[-8.04813,40.01765],[-8.04923,40.01899],[-8.05191,40.01504],[-8.05537,40.01365],[-8.05577,40.01196],[-8.05424,40.01045],[-8.05441,40.00959],[-8.05625,40.01037],[-8.0589,40.01014],[-8.06085,40.0108],[-8.06255,40.00898],[-8.06541,40.00845],[-8.07136,40.00451],[-8.07435,40.00437],[-8.0755,40.00579],[-8.07645,40.00593],[-8.07832,40.00173],[-8.07479,40.00082],[-8.0761,39.99669],[-8.07348,39.99425],[-8.07366,39.99333],[-8.07775,39.99225],[-8.0828,39.99481],[-8.08643,39.99282],[-8.08766,39.99067],[-8.08992,39.99028],[-8.09094,39.98876],[-8.09099,39.98672],[-8.08971,39.98401],[-8.09015,39.98153],[-8.08543,39.97941],[-8.08532,39.97873],[-8.09069,39.9768],[-8.0959,39.97333],[-8.09964,39.97318],[-8.10095,39.97005],[-8.10481,39.9694],[-8.10525,39.96665],[-8.10421,39.96509],[-8.10085,39.96287],[-8.10109,39.96052],[-8.10222,39.96023],[-8.10805,39.96213],[-8.1102,39.95962],[-8.11072,39.95702],[-8.1129,39.95403],[-8.12082,39.95216],[-8.12363,39.94858],[-8.12301,39.94609],[-8.12352,39.94465],[-8.13208,39.94057],[-8.13273,39.93764]]]]}},{"type":"Feature","properties":{"municipio":"Penacova","ine":"0613"},"geometry":{"type":"MultiPolygon","coordinates":[[[[-8.38965,40.29058],[-8.38855,40.28789],[-8.38948,40.28564],[-8.38701,40.28158],[-8.3813,40.28031],[-8.37673,40.28065],[-8.37264,40.2797],[-8.3674,40.27666],[-8.36024,40.27118],[-8.35362,40.26848],[-8.35643,40.26524],[-8.35991,40.26319],[-8.35933,40.25512],[-8.36132,40.25169],[-8.3643,40.24904],[-8.36431,40.24767],[-8.36056,40.23839],[-8.35744,40.23608],[-8.35783,40.23418],[-8.35475,40.23346],[-8.35138,40.22811],[-8.34874,40.22534],[-8.34656,40.22312],[-8.34141,40.22029],[-8.34031,40.21861],[-8.33484,40.2213],[-8.33298,40.22548],[-8.32546,40.228],[-8.32328,40.2294],[-8.32079,40.23337],[-8.32014,40.23665],[-8.31904,40.23758],[-8.31689,40.23778],[-8.31241,40.23633],[-8.30597,40.23986],[-8.30072,40.23945],[-8.29964,40.24049],[-8.3012,40.24418],[-8.3004,40.24511],[-8.29655,40.24414],[-8.28946,40.23993],[-8.28736,40.23996],[-8.28047,40.24373],[-8.28018,40.24526],[-8.28098,40.24761],[-8.27776,40.24814],[-8.27623,40.24714],[-8.27566,40.24534],[-8.272,40.24547],[-8.27223,40.24441],[-8.27089,40.24377],[-8.27142,40.24317],[-8.26918,40.24149],[-8.26744,40.24258],[-8.26623,40.24258],[-8.26445,40.24421],[-8.26204,40.24383],[-8.25993,40.24528],[-8.25619,40.24543],[-8.2537,40.24409],[-8.25232,40.24468],[-8.25338,40.24647],[-8.25237,40.25388],[-8.22399,40.25354],[-8.2152,40.25213],[-8.21201,40.25382],[-8.20711,40.25387],[-8.2066,40.25424],[-8.20736,40.25589],[-8.2069,40.25715],[-8.20261,40.25845],[-8.19967,40.26025],[-8.19872,40.26029],[-8.19736,40.25877],[-8.19463,40.25835],[-8.19414,40.25615],[-8.19315,40.2567],[-8.19324,40.25849],[-8.19193,40.25874],[-8.18533,40.25896],[-8.18377,40.25964],[-8.18144,40.2597],[-8.17642,40.2583],[-8.17529,40.25951],[-8.17481,40.26155],[-8.16794,40.26449],[-8.16591,40.26682],[-8.16544,40.26867],[-8.16443,40.26865],[-8.16168,40.27056],[-8.16327,40.27437],[-8.16041,40.27835],[-8.16002,40.28134],[-8.16142,40.28387],[-8.15987,40.28616],[-8.15472,40.28822],[-8.14974,40.28943],[-8.14487,40.28906],[-8.14176,40.28767],[-8.14045,40.2882],[-8.13978,40.29065],[-8.13531,40.29561],[-8.13219,40.29662],[-8.13138,40.29759],[-8.12765,40.29854],[-8.12417,40.29803],[-8.12159,40.2984],[-8.11927,40.2999],[-8.11593,40.30005],[-8.11541,40.30138],[-8.11274,40.30146],[-8.11043,40.30055],[-8.10825,40.30318],[-8.11016,40.30441],[-8.1097,40.30642],[-8.11153,40.30629],[-8.11287,40.30745],[-8.11166,40.30885],[-8.11315,40.30917],[-8.11586,40.30827],[-8.11646,40.30867],[-8.11506,40.31061],[-8.11474,40.31291],[-8.11585,40.31416],[-8.11775,40.3142],[-8.11428,40.31643],[-8.11589,40.31819],[-8.11479,40.3202],[-8.11665,40.32158],[-8.11522,40.32324],[-8.11535,40.32407],[-8.11787,40.32694],[-8.11635,40.32948],[-8.11563,40.33191],[-8.11632,40.33216],[-8.12097,40.33236],[-8.12367,40.33128],[-8.12671,40.33123],[-8.12949,40.33481],[-8.13225,40.33545],[-8.13311,40.33365],[-8.13517,40.33328],[-8.13637,40.33423],[-8.13726,40.33694],[-8.14035,40.33834],[-8.14528,40.33842],[-8.15198,40.3375],[-8.15556,40.3379],[-8.16245,40.34142],[-8.16716,40.34215],[-8.17084,40.34507],[-8.17211,40.34412],[-8.17672,40.33714],[-8.17849,40.33573],[-8.18308,40.33381],[-8.18503,40.3336],[-8.18618,40.33427],[-8.18701,40.339],[-8.18912,40.34204],[-8.19094,40.34307],[-8.19367,40.34307],[-8.19784,40.33939],[-8.19937,40.33882],[-8.20812,40.34129],[-8.21061,40.34131],[-8.22081,40.33591],[-8.22454,40.33498],[-8.22718,40.33281],[-8.23183,40.33153],[-8.23129,40.32873],[-8.23181,40.32494],[-8.23215,40.32431],[-8.23291,40.3255],[-8.2332,40.32284],[-8.23701,40.32264],[-8.23976,40.32553],[-8.24258,40.32653],[-8.24713,40.32358],[-8.25085,40.32323],[-8.25446,40.32458],[-8.25783,40.32747],[-8.25912,40.3275],[-8.26332,40.33235],[-8.26341,40.33382],[-8.27036,40.33543],[-8.27649,40.33569],[-8.28109,40.34026],[-8.28273,40.34485],[-8.28456,40.34471],[-8.284,40.34516],[-8.2849,40.34535],[-8.28529,40.34653],[-8.28834,40.34682],[-8.28946,40.34757],[-8.29297,40.35145],[-8.29315,40.3543],[-8.2989,40.35781],[-8.30449,40.35925],[-8.31002,40.36147],[-8.32029,40.36202],[-8.32258,40.36117],[-8.32542,40.36143],[-8.32518,40.35478],[-8.32922,40.35477],[-8.33454,40.35914],[-8.33712,40.36314],[-8.33999,40.36532],[-8.34079,40.36785],[-8.34232,40.36947],[-8.34652,40.3708],[-8.35402,40.36955],[-8.35622,40.36723],[-8.35468,40.36186],[-8.35714,40.34846],[-8.35786,40.34741],[-8.36966,40.34477],[-8.37122,40.34318],[-8.37533,40.3413],[-8.37585,40.33637],[-8.36904,40.32884],[-8.36785,40.32613],[-8.37056,40.32234],[-8.37112,40.3199],[-8.37202,40.31922],[-8.37389,40.31953],[-8.374,40.31817],[-8.37537,40.3166],[-8.37877,40.3164],[-8.37927,40.3174],[-8.38253,40.31757],[-8.38289,40.31584],[-8.38543,40.31521],[-8.38737,40.31289],[-8.3896,40.31249],[-8.38784,40.30848],[-8.38547,40.29877],[-8.38351,40.29834],[-8.38598,40.29691],[-8.38894,40.29319],[-8.38965,40.29058]]]]}},{"type":"Feature","properties":{"municipio":"Penela","ine":"0614"},"geometry":{"type":"MultiPolygon","coordinates":[[[[-8.47459,40.03438],[-8.47407,40.02621],[-8.46912,40.02193],[-8.46545,40.0213],[-8.45969,40.0253],[-8.45941,40.02339],[-8.46055,40.0185],[-8.45746,40.01778],[-8.45552,40.0156],[-8.45181,40.01531],[-8.44786,40.01386],[-8.44706,40.01114],[-8.44188,40.01044],[-8.43833,40.00639],[-8.43746,40.00639],[-8.43352,40.003],[-8.42874,40.00331],[-8.42672,40.0043],[-8.42478,40.00679],[-8.42527,40.00834],[-8.42744,40.00811],[-8.42833,40.00671],[-8.43053,40.00745],[-8.43094,40.00876],[-8.43014,40.00979],[-8.43336,40.01283],[-8.43474,40.01325],[-8.43602,40.01283],[-8.43688,40.01549],[-8.43445,40.01937],[-8.43512,40.02146],[-8.43274,40.02207],[-8.42987,40.02529],[-8.42813,40.02576],[-8.42752,40.0267],[-8.42601,40.02656],[-8.42435,40.02462],[-8.42276,40.02429],[-8.42147,40.02301],[-8.42094,40.02029],[-8.41628,40.0186],[-8.41648,40.01441],[-8.41529,40.01429],[-8.41351,40.01281],[-8.411,40.0087],[-8.40916,40.00843],[-8.41049,40.01039],[-8.40914,40.01134],[-8.40818,40.01088],[-8.40845,40.0099],[-8.40661,40.00906],[-8.40735,40.00769],[-8.40682,40.00605],[-8.40572,40.00542],[-8.40445,40.00583],[-8.40411,40.00256],[-8.40222,40.00093],[-8.40052,39.99559],[-8.40041,39.99176],[-8.39891,39.98822],[-8.40259,39.97863],[-8.39482,39.97486],[-8.38806,39.96638],[-8.38368,39.95959],[-8.3799,39.95541],[-8.38092,39.95138],[-8.38594,39.95166],[-8.3904,39.95123],[-8.39249,39.94974],[-8.39166,39.94872],[-8.39276,39.94451],[-8.39234,39.94155],[-8.39318,39.93747],[-8.39653,39.93566],[-8.40022,39.9348],[-8.40707,39.93466],[-8.40719,39.93395],[-8.40854,39.93364],[-8.40886,39.93184],[-8.40692,39.93197],[-8.40727,39.92967],[-8.40098,39.9278],[-8.39979,39.92619],[-8.38575,39.92394],[-8.38541,39.92466],[-8.3836,39.92496],[-8.38171,39.92727],[-8.37992,39.9275],[-8.37803,39.92532],[-8.37643,39.92449],[-8.37384,39.92379],[-8.37219,39.92405],[-8.37367,39.92693],[-8.37339,39.93267],[-8.37006,39.93325],[-8.36434,39.93529],[-8.35921,39.93566],[-8.35841,39.93663],[-8.35764,39.94059],[-8.35546,39.94332],[-8.35213,39.94352],[-8.35,39.9463],[-8.34834,39.94683],[-8.3418,39.95274],[-8.33741,39.95418],[-8.33686,39.95561],[-8.33465,39.95687],[-8.33431,39.96098],[-8.32637,39.96392],[-8.32656,39.96731],[-8.32794,39.96989],[-8.32623,39.97052],[-8.3263,39.97249],[-8.32547,39.9735],[-8.32453,39.97166],[-8.32368,39.97186],[-8.32209,39.97096],[-8.321,39.97166],[-8.31987,39.97127],[-8.32131,39.97397],[-8.31872,39.97468],[-8.31859,39.97995],[-8.31988,39.9838],[-8.31914,39.98486],[-8.31548,39.98686],[-8.31383,39.98872],[-8.31195,39.98876],[-8.30992,39.98314],[-8.30924,39.97746],[-8.30763,39.9747],[-8.29765,39.97041],[-8.29259,39.96891],[-8.28533,39.96548],[-8.27957,39.95942],[-8.27865,39.96052],[-8.27859,39.96259],[-8.27958,39.96278],[-8.28071,39.96172],[-8.28141,39.96221],[-8.2812,39.96382],[-8.28019,39.96396],[-8.27948,39.9634],[-8.27792,39.96532],[-8.28039,39.96768],[-8.27984,39.96973],[-8.27913,39.9701],[-8.27766,39.96964],[-8.27569,39.97232],[-8.27547,39.97383],[-8.27328,39.97322],[-8.27211,39.97539],[-8.27425,39.97841],[-8.27439,39.97965],[-8.2778,39.97905],[-8.27858,39.98007],[-8.2763,39.98212],[-8.27406,39.98217],[-8.27365,39.9833],[-8.27038,39.98354],[-8.27064,39.98529],[-8.27305,39.98555],[-8.27064,39.98914],[-8.2775,39.98986],[-8.28277,39.99218],[-8.28383,39.99434],[-8.28955,39.99838],[-8.29194,40.00348],[-8.29798,40.00935],[-8.29678,40.01593],[-8.293,40.0174],[-8.28867,40.02132],[-8.28801,40.02485],[-8.28684,40.02606],[-8.28876,40.02626],[-8.29305,40.02884],[-8.30289,40.03288],[-8.3104,40.03393],[-8.31662,40.03772],[-8.31756,40.04019],[-8.32416,40.04355],[-8.32873,40.04377],[-8.33128,40.04532],[-8.33967,40.04543],[-8.34667,40.0469],[-8.34843,40.05004],[-8.35041,40.05079],[-8.3539,40.05107],[-8.35597,40.05262],[-8.36072,40.05316],[-8.36194,40.05185],[-8.36747,40.05118],[-8.3673,40.05321],[-8.36654,40.05342],[-8.36579,40.05264],[-8.36457,40.05319],[-8.36275,40.05648],[-8.36922,40.0613],[-8.37019,40.06485],[-8.37387,40.06543],[-8.37608,40.06823],[-8.37743,40.06828],[-8.37992,40.06567],[-8.38236,40.06581],[-8.38566,40.07054],[-8.39041,40.0708],[-8.39622,40.07812],[-8.4038,40.07595],[-8.40491,40.0764],[-8.40581,40.07826],[-8.40893,40.08083],[-8.41138,40.07984],[-8.41431,40.08054],[-8.41752,40.08053],[-8.4205,40.07695],[-8.42235,40.07704],[-8.42386,40.07792],[-8.43373,40.07197],[-8.43585,40.07712],[-8.43801,40.07919],[-8.44003,40.07898],[-8.44132,40.08044],[-8.45107,40.08307],[-8.45216,40.08431],[-8.4544,40.08519],[-8.457,40.08501],[-8.4544,40.08141],[-8.45613,40.07779],[-8.45397,40.0763],[-8.45242,40.07611],[-8.45208,40.07484],[-8.4503,40.07357],[-8.4527,40.07052],[-8.45258,40.06917],[-8.4485,40.06769],[-8.4462,40.06571],[-8.44189,40.06428],[-8.4425,40.06298],[-8.43754,40.06055],[-8.4361,40.05755],[-8.43373,40.05741],[-8.43256,40.05539],[-8.42926,40.05515],[-8.4264,40.0501],[-8.42654,40.04901],[-8.42734,40.04877],[-8.42697,40.04686],[-8.42944,40.04649],[-8.42787,40.04078],[-8.4312,40.03865],[-8.43782,40.03657],[-8.43838,40.03863],[-8.45909,40.03916],[-8.4641,40.04053],[-8.46987,40.04323],[-8.47326,40.04385],[-8.4732,40.0369],[-8.47459,40.03438]]]]}},{"type":"Feature","properties":{"municipio":"Soure","ine":"0615"},"geometry":{"type":"MultiPolygon","coordinates":[[[[-8.76391,40.1178],[-8.76291,40.11721],[-8.76375,40.11589],[-8.7632,40.11501],[-8.75971,40.1117],[-8.76066,40.10713],[-8.7572,40.10417],[-8.75713,40.0968],[-8.75591,40.09577],[-8.75231,40.0944],[-8.74967,40.09087],[-8.74736,40.09003],[-8.74517,40.08569],[-8.74514,40.08396],[-8.7464,40.08282],[-8.74808,40.08339],[-8.74943,40.08497],[-8.75086,40.08482],[-8.75205,40.08355],[-8.74937,40.08062],[-8.74963,40.0797],[-8.75331,40.07962],[-8.75388,40.07889],[-8.75022,40.07433],[-8.74984,40.07231],[-8.74109,40.06695],[-8.74174,40.06376],[-8.73844,40.06009],[-8.7385,40.05827],[-8.7376,40.05698],[-8.7381,40.05425],[-8.73711,40.04787],[-8.73441,40.04488],[-8.73452,40.04356],[-8.73324,40.04288],[-8.73211,40.04104],[-8.73298,40.03795],[-8.73176,40.03593],[-8.73222,40.03218],[-8.72315,40.03082],[-8.71187,40.03014],[-8.70665,40.02915],[-8.70291,40.02749],[-8.7016,40.02763],[-8.69951,40.02912],[-8.69556,40.02982],[-8.6908,40.02651],[-8.68853,40.02775],[-8.68678,40.02685],[-8.68527,40.02695],[-8.68225,40.02869],[-8.67879,40.02824],[-8.67547,40.03009],[-8.67221,40.02721],[-8.67072,40.02263],[-8.66847,40.01985],[-8.66884,40.01867],[-8.66635,40.01638],[-8.65992,40.01656],[-8.65719,40.01544],[-8.6524,40.0116],[-8.64921,40.01067],[-8.64623,40.01011],[-8.64112,40.01112],[-8.64013,40.00953],[-8.6432,40.00573],[-8.64291,40.00378],[-8.64472,40.00218],[-8.64231,39.99948],[-8.64421,39.9962],[-8.64333,39.99464],[-8.64507,39.99194],[-8.64286,39.99042],[-8.63343,39.99149],[-8.6297,39.9908],[-8.62493,39.99089],[-8.61623,39.99159],[-8.61495,39.9923],[-8.61346,39.99683],[-8.61149,39.99845],[-8.61162,40.00181],[-8.60678,40.00736],[-8.60257,40.01069],[-8.60229,40.01431],[-8.60096,40.0159],[-8.60072,40.01838],[-8.59889,40.02164],[-8.59825,40.02246],[-8.59268,40.02399],[-8.59151,40.02761],[-8.58954,40.0281],[-8.56262,40.02817],[-8.55399,40.02521],[-8.55237,40.02396],[-8.55197,40.02234],[-8.55156,40.00909],[-8.55059,40.0013],[-8.54921,39.99645],[-8.54887,39.98443],[-8.54618,39.98228],[-8.5458,39.98111],[-8.5465,39.97811],[-8.55194,39.9726],[-8.55169,39.96158],[-8.55087,39.95904],[-8.54835,39.95612],[-8.54327,39.95301],[-8.54139,39.95017],[-8.53881,39.94884],[-8.53497,39.951],[-8.52945,39.95607],[-8.52472,39.96279],[-8.52322,39.96665],[-8.52298,39.97052],[-8.52144,39.97342],[-8.52059,39.97963],[-8.52277,39.983],[-8.52223,39.98453],[-8.51803,39.98508],[-8.51611,39.98434],[-8.50891,39.98524],[-8.50357,39.98443],[-8.49062,39.98611],[-8.49044,39.98744],[-8.48785,39.98954],[-8.48654,39.99253],[-8.47942,39.99613],[-8.47299,39.99803],[-8.46801,40.0014],[-8.46666,40.00306],[-8.46267,40.00404],[-8.45949,40.00654],[-8.4598,40.00851],[-8.45875,40.00988],[-8.45895,40.01095],[-8.45717,40.01302],[-8.45746,40.01778],[-8.46055,40.0185],[-8.45941,40.02339],[-8.45969,40.0253],[-8.46545,40.0213],[-8.46798,40.02147],[-8.47407,40.02621],[-8.47457,40.03445],[-8.47569,40.03236],[-8.47659,40.03242],[-8.47834,40.03081],[-8.48124,40.02977],[-8.49177,40.03362],[-8.49493,40.04402],[-8.49643,40.04697],[-8.49807,40.04746],[-8.50296,40.04839],[-8.50907,40.04782],[-8.5167,40.04953],[-8.53197,40.04824],[-8.5373,40.04832],[-8.53993,40.05188],[-8.54914,40.06963],[-8.55331,40.07489],[-8.55831,40.08405],[-8.56143,40.08507],[-8.57573,40.08445],[-8.58199,40.08821],[-8.58704,40.09314],[-8.59145,40.11017],[-8.58633,40.11645],[-8.58797,40.12034],[-8.58143,40.11877],[-8.57879,40.11979],[-8.57716,40.12262],[-8.57714,40.12728],[-8.5795,40.12973],[-8.57957,40.13066],[-8.58223,40.13274],[-8.57458,40.134],[-8.56697,40.13804],[-8.56361,40.13877],[-8.56033,40.14126],[-8.56686,40.14413],[-8.57339,40.14927],[-8.57847,40.15229],[-8.58979,40.15651],[-8.59377,40.15852],[-8.5961,40.16046],[-8.6081,40.163],[-8.61693,40.1659],[-8.63074,40.16586],[-8.63164,40.16677],[-8.63464,40.1676],[-8.63529,40.16941],[-8.64319,40.17102],[-8.65139,40.17496],[-8.65471,40.17593],[-8.6671,40.17414],[-8.67049,40.17066],[-8.67187,40.16618],[-8.67555,40.15862],[-8.67714,40.15292],[-8.68006,40.14774],[-8.67684,40.14832],[-8.67365,40.1475],[-8.67007,40.14339],[-8.66191,40.1391],[-8.6474,40.12669],[-8.66201,40.12018],[-8.6634,40.1237],[-8.66601,40.12261],[-8.66645,40.12374],[-8.67485,40.12147],[-8.68154,40.11334],[-8.68823,40.11432],[-8.69221,40.11318],[-8.69359,40.11211],[-8.69618,40.11242],[-8.6974,40.11399],[-8.70098,40.11456],[-8.70605,40.11421],[-8.70714,40.11368],[-8.71031,40.11393],[-8.71294,40.11614],[-8.71577,40.11676],[-8.72027,40.11583],[-8.72364,40.11389],[-8.72802,40.11371],[-8.72887,40.11311],[-8.73243,40.11405],[-8.73385,40.11359],[-8.73661,40.11391],[-8.73832,40.11492],[-8.7402,40.11493],[-8.74013,40.11441],[-8.74169,40.11562],[-8.74331,40.11598],[-8.74603,40.11897],[-8.75182,40.12188],[-8.75488,40.12009],[-8.76256,40.11953],[-8.76391,40.1178]]],[[[-8.57878,40.15641],[-8.57668,40.15542],[-8.57509,40.15355],[-8.57358,40.15372],[-8.57309,40.15433],[-8.57846,40.15772],[-8.57878,40.15641]]],[[[-8.43326,40.00296],[-8.43144,39.99902],[-8.42915,39.99875],[-8.42796,39.9976],[-8.42711,39.99765],[-8.42483,39.99985],[-8.42504,40.0019],[-8.42775,40.00374],[-8.43326,40.00296]]]]}},{"type":"Feature","properties":{"municipio":"Tábua","ine":"0616"},"geometry":{"type":"MultiPolygon","coordinates":[[[[-8.134,40.34045],[-8.13225,40.33545],[-8.12949,40.33481],[-8.12671,40.33123],[-8.12367,40.33128],[-8.12097,40.33236],[-8.11563,40.33191],[-8.11787,40.32694],[-8.11535,40.32407],[-8.11522,40.32324],[-8.11665,40.32158],[-8.11479,40.3202],[-8.11589,40.31819],[-8.11428,40.31643],[-8.11776,40.3141],[-8.11585,40.31416],[-8.11474,40.31291],[-8.1148,40.31129],[-8.11637,40.30848],[-8.11302,40.30919],[-8.11166,40.30885],[-8.11287,40.30745],[-8.11153,40.30629],[-8.1097,40.30642],[-8.11011,40.30428],[-8.10827,40.30337],[-8.11045,40.30047],[-8.10856,40.2963],[-8.11153,40.29294],[-8.11127,40.28877],[-8.11249,40.28441],[-8.10505,40.27948],[-8.10801,40.27043],[-8.10626,40.26754],[-8.1048,40.26603],[-8.10198,40.26715],[-8.09741,40.26591],[-8.09532,40.26364],[-8.0937,40.26007],[-8.08834,40.26184],[-8.08863,40.26315],[-8.08584,40.26531],[-8.0862,40.26796],[-8.08521,40.26945],[-8.07618,40.27591],[-8.07172,40.27145],[-8.0662,40.26343],[-8.06293,40.2549],[-8.06083,40.25199],[-8.05539,40.24963],[-8.0517,40.24281],[-8.04797,40.24396],[-8.0445,40.24101],[-8.04338,40.24072],[-8.04044,40.2418],[-8.03843,40.24418],[-8.0362,40.24982],[-8.03446,40.25228],[-8.03391,40.25694],[-8.03301,40.25815],[-8.0283,40.26043],[-8.02682,40.26022],[-8.02662,40.25714],[-8.02883,40.25574],[-8.02856,40.25492],[-8.01883,40.25696],[-8.01784,40.25862],[-8.01769,40.26391],[-8.01567,40.26676],[-8.01473,40.26376],[-8.01538,40.2623],[-8.01497,40.26133],[-8.01087,40.26017],[-8.00852,40.26097],[-8.0078,40.2638],[-8.00417,40.26545],[-8.00356,40.26817],[-8.00048,40.26973],[-7.99969,40.27317],[-7.99736,40.27436],[-7.99702,40.27616],[-7.99789,40.27753],[-7.99931,40.27803],[-7.99936,40.27976],[-8.00201,40.28278],[-7.99869,40.28648],[-7.99549,40.28806],[-7.98467,40.28455],[-7.9777,40.28945],[-7.97789,40.29097],[-7.97643,40.29176],[-7.97656,40.29278],[-7.97554,40.29404],[-7.97647,40.29464],[-7.97177,40.29795],[-7.97217,40.29879],[-7.96974,40.29922],[-7.97018,40.3014],[-7.96765,40.30308],[-7.96726,40.30497],[-7.97209,40.30708],[-7.97265,40.31029],[-7.97479,40.31225],[-7.97502,40.31348],[-7.98174,40.31846],[-7.98044,40.32096],[-7.98121,40.32118],[-7.97843,40.32428],[-7.97579,40.32573],[-7.97117,40.32653],[-7.96578,40.3266],[-7.96256,40.32767],[-7.9528,40.3276],[-7.94944,40.32906],[-7.9442,40.32857],[-7.94243,40.32898],[-7.93987,40.32739],[-7.93207,40.32616],[-7.93065,40.32509],[-7.92878,40.32496],[-7.92672,40.32394],[-7.91732,40.32229],[-7.91044,40.32631],[-7.91129,40.32777],[-7.91103,40.33032],[-7.91172,40.33134],[-7.91126,40.33476],[-7.91259,40.33621],[-7.91208,40.33688],[-7.91258,40.33714],[-7.91057,40.33937],[-7.90351,40.3416],[-7.89897,40.35335],[-7.90845,40.35658],[-7.90764,40.35905],[-7.90494,40.36048],[-7.90101,40.36454],[-7.90369,40.369],[-7.9057,40.36948],[-7.90595,40.37026],[-7.90716,40.37037],[-7.90835,40.36941],[-7.91034,40.37013],[-7.91048,40.37084],[-7.91203,40.37047],[-7.91294,40.37133],[-7.91738,40.37135],[-7.91867,40.37192],[-7.92115,40.37135],[-7.92233,40.37218],[-7.92125,40.37543],[-7.91991,40.37568],[-7.91875,40.37789],[-7.9176,40.3784],[-7.91707,40.38017],[-7.9127,40.38494],[-7.91254,40.38845],[-7.91401,40.39229],[-7.92005,40.39603],[-7.9212,40.39792],[-7.92466,40.39885],[-7.92739,40.40149],[-7.93116,40.40246],[-7.93258,40.40225],[-7.93489,40.40329],[-7.93551,40.40569],[-7.93421,40.408],[-7.93451,40.41045],[-7.93685,40.4098],[-7.93983,40.41102],[-7.93839,40.41848],[-7.94022,40.41854],[-7.94135,40.41938],[-7.94211,40.41885],[-7.94359,40.41898],[-7.94504,40.42113],[-7.94751,40.42269],[-7.95107,40.4228],[-7.95418,40.42394],[-7.956,40.42325],[-7.95797,40.42022],[-7.96302,40.41685],[-7.96345,40.41538],[-7.96488,40.41403],[-7.96973,40.4111],[-7.97386,40.40515],[-7.97786,40.4041],[-7.98063,40.40254],[-7.98582,40.40276],[-7.98966,40.40094],[-7.99258,40.39737],[-8.00088,40.39563],[-8.00236,40.39248],[-8.0088,40.38982],[-8.01521,40.38923],[-8.02652,40.38697],[-8.039,40.3867],[-8.04258,40.38545],[-8.04429,40.38417],[-8.045,40.38175],[-8.05096,40.37556],[-8.05458,40.37429],[-8.05704,40.37196],[-8.06094,40.3724],[-8.06485,40.37433],[-8.06795,40.37335],[-8.06989,40.37133],[-8.07057,40.36784],[-8.07473,40.36336],[-8.08054,40.36069],[-8.08301,40.36187],[-8.08919,40.36056],[-8.09395,40.35676],[-8.09816,40.35468],[-8.11301,40.34142],[-8.11654,40.33908],[-8.11907,40.33852],[-8.12183,40.33875],[-8.13067,40.34337],[-8.13296,40.34258],[-8.134,40.34045]]]]}},{"type":"Feature","properties":{"municipio":"Vila Nova de Poiares","ine":"0617"},"geometry":{"type":"MultiPolygon","coordinates":[[[[-8.34031,40.21861],[-8.33613,40.21466],[-8.331,40.21361],[-8.32658,40.21177],[-8.32235,40.20806],[-8.32046,40.2076],[-8.31512,40.20848],[-8.31495,40.20482],[-8.31943,40.20446],[-8.31992,40.19847],[-8.30802,40.18552],[-8.30952,40.18354],[-8.31058,40.18378],[-8.31131,40.18291],[-8.31079,40.18037],[-8.30851,40.18176],[-8.30686,40.18449],[-8.30259,40.18005],[-8.29716,40.17817],[-8.29175,40.1777],[-8.28992,40.1786],[-8.28893,40.18376],[-8.2869,40.18605],[-8.27992,40.18738],[-8.2741,40.18724],[-8.2599,40.18414],[-8.25402,40.17794],[-8.24556,40.1761],[-8.24143,40.17777],[-8.23891,40.17792],[-8.23791,40.17869],[-8.23697,40.17835],[-8.23139,40.17909],[-8.22635,40.18143],[-8.22551,40.18261],[-8.22035,40.18422],[-8.21685,40.18707],[-8.20965,40.1876],[-8.20497,40.19103],[-8.20253,40.1942],[-8.19668,40.19593],[-8.19645,40.19777],[-8.19377,40.19936],[-8.19369,40.19997],[-8.1843,40.20179],[-8.18484,40.20258],[-8.18287,40.20352],[-8.1736,40.20555],[-8.1746,40.20948],[-8.17533,40.21101],[-8.17646,40.21154],[-8.1762,40.21304],[-8.17779,40.21571],[-8.17663,40.21805],[-8.17779,40.21989],[-8.17587,40.22265],[-8.18206,40.22489],[-8.18276,40.22665],[-8.18445,40.22725],[-8.1867,40.22943],[-8.18715,40.23108],[-8.1822,40.23431],[-8.18187,40.23626],[-8.17681,40.23683],[-8.17502,40.2379],[-8.17086,40.24271],[-8.16363,40.24928],[-8.16953,40.24849],[-8.17416,40.24532],[-8.17698,40.24507],[-8.17855,40.24589],[-8.17684,40.24701],[-8.17742,40.24926],[-8.17555,40.25139],[-8.1797,40.25154],[-8.18131,40.25075],[-8.18163,40.24842],[-8.18407,40.24447],[-8.18616,40.24371],[-8.18749,40.24414],[-8.18893,40.2458],[-8.18732,40.24795],[-8.18761,40.24972],[-8.1902,40.25061],[-8.19245,40.2498],[-8.19291,40.24885],[-8.19219,40.24616],[-8.19318,40.24543],[-8.19415,40.24554],[-8.19518,40.24994],[-8.19952,40.25275],[-8.20099,40.25469],[-8.20896,40.25357],[-8.21201,40.25382],[-8.2152,40.25213],[-8.22399,40.25354],[-8.25237,40.25388],[-8.25338,40.24647],[-8.25232,40.24468],[-8.2537,40.24409],[-8.25619,40.24543],[-8.25993,40.24528],[-8.26204,40.24383],[-8.26445,40.24421],[-8.26623,40.24258],[-8.26744,40.24258],[-8.26939,40.24151],[-8.27142,40.24317],[-8.27089,40.24377],[-8.27223,40.24441],[-8.272,40.24547],[-8.27566,40.24534],[-8.2764,40.24735],[-8.27853,40.24813],[-8.28098,40.24761],[-8.28018,40.2446],[-8.28123,40.24308],[-8.28589,40.24052],[-8.28875,40.2398],[-8.29655,40.24414],[-8.3004,40.24511],[-8.3012,40.24418],[-8.29964,40.24049],[-8.30072,40.23945],[-8.30597,40.23986],[-8.31241,40.23633],[-8.31689,40.23778],[-8.31904,40.23758],[-8.32014,40.23665],[-8.32079,40.23337],[-8.32328,40.2294],[-8.32546,40.228],[-8.33298,40.22548],[-8.33484,40.2213],[-8.34031,40.21861]]]]}}]}